{"type":"FeatureCollection","features":[{"type":"Feature","properties":{"name":"Verden","state_ags":"03"},"geometry":{"type":"Point","coordinates":[9.175821060345033,52.97301405560463]}},{"type":"Feature","properties":{"name":"Flensburg","state_ags":"01"},"geometry":{"type":"Point","coordinates":[9.437870639478838,54.78504569704058]}},{"type":"Feature","properties":{"name":"Kiel","state_ags":"01"},"geometry":{"type":"Point","coordinates":[10.132535988528986,54.32432316924321]}},{"type":"Feature","properties":{"name":"Lübeck","state_ags":"01"},"geometry":{"type":"Point","coordinates":[10.7262226911983,53.87216147126448]}},{"type":"Feature","properties":{"name":"Neumünster","state_ags":"01"},"geometry":{"type":"Point","coordinates":[9.984525472048784,54.08118815996299]}},{"type":"Feature","properties":{"name":"Dithmarschen","state_ags":"01"},"geometry":{"type":"Point","coordinates":[9.110499856861733,54.13514945042166]}},{"type":"Feature","properties":{"name":"Herzogtum Lauenburg","state_ags":"01"},"geometry":{"type":"Point","coordinates":[10.602104296753765,53.589104822448135]}},{"type":"Feature","properties":{"name":"Nordfriesland","state_ags":"01"},"geometry":{"type":"Point","coordinates":[8.929414869746878,54.61167166303829]}},{"type":"Feature","properties":{"name":"Ostholstein","state_ags":"01"},"geometry":{"type":"Point","coordinates":[10.768420960776911,54.14731152833643]}},{"type":"Feature","properties":{"name":"Pinneberg","state_ags":"01"},"geometry":{"type":"Point","coordinates":[9.745560402078786,53.716904300126046]}},{"type":"Feature","properties":{"name":"Plön","state_ags":"01"},"geometry":{"type":"Point","coordinates":[10.363767495117118,54.243480425944796]}},{"type":"Feature","properties":{"name":"Rendsburg-Eckernförde","state_ags":"01"},"geometry":{"type":"Point","coordinates":[9.782075569705164,54.29000471610939]}},{"type":"Feature","properties":{"name":"Schleswig-Flensburg","state_ags":"01"},"geometry":{"type":"Point","coordinates":[9.499355825112684,54.62342032744319]}},{"type":"Feature","properties":{"name":"Segeberg","state_ags":"01"},"geometry":{"type":"Point","coordinates":[10.141217940570058,53.91993815092166]}},{"type":"Feature","properties":{"name":"Steinburg","state_ags":"01"},"geometry":{"type":"Point","coordinates":[9.519681597004595,53.92884149754613]}},{"type":"Feature","properties":{"name":"Stormarn","state_ags":"01"},"geometry":{"type":"Point","coordinates":[10.331362810865096,53.72102812788161]}},{"type":"Feature","properties":{"name":"Hamburg","state_ags":"02"},"geometry":{"type":"Point","coordinates":[10.02662260879118,53.544352397749385]}},{"type":"Feature","properties":{"name":"Braunschweig","state_ags":"03"},"geometry":{"type":"Point","coordinates":[10.524360644401236,52.27579884565106]}},{"type":"Feature","properties":{"name":"Salzgitter","state_ags":"03"},"geometry":{"type":"Point","coordinates":[10.370857903510329,52.12396566447093]}},{"type":"Feature","properties":{"name":"Wolfsburg","state_ags":"03"},"geometry":{"type":"Point","coordinates":[10.784200828909752,52.41049732315516]}},{"type":"Feature","properties":{"name":"Gifhorn","state_ags":"03"},"geometry":{"type":"Point","coordinates":[10.604056453291433,52.58019922833678]}},{"type":"Feature","properties":{"name":"Goslar","state_ags":"03"},"geometry":{"type":"Point","coordinates":[10.400308841284128,51.87469480908363]}},{"type":"Feature","properties":{"name":"Helmstedt","state_ags":"03"},"geometry":{"type":"Point","coordinates":[10.888681318509677,52.26007974301353]}},{"type":"Feature","properties":{"name":"Northeim","state_ags":"03"},"geometry":{"type":"Point","coordinates":[9.849157871498308,51.743487840408605]}},{"type":"Feature","properties":{"name":"Peine","state_ags":"03"},"geometry":{"type":"Point","coordinates":[10.255411739718875,52.304007644825475]}},{"type":"Feature","properties":{"name":"Wolfenbüttel","state_ags":"03"},"geometry":{"type":"Point","coordinates":[10.646499982294548,52.1355843460711]}},{"type":"Feature","properties":{"name":"Göttingen","state_ags":"03"},"geometry":{"type":"Point","coordinates":[10.087619081340081,51.56390479928866]}},{"type":"Feature","properties":{"name":"Region Hannover","state_ags":"03"},"geometry":{"type":"Point","coordinates":[9.7203849661848,52.422079671873455]}},{"type":"Feature","properties":{"name":"Diepholz","state_ags":"03"},"geometry":{"type":"Point","coordinates":[8.702097270202202,52.728445868952186]}},{"type":"Feature","properties":{"name":"Hameln-Pyrmont","state_ags":"03"},"geometry":{"type":"Point","coordinates":[9.389252820844517,52.09519929588058]}},{"type":"Feature","properties":{"name":"Hildesheim","state_ags":"03"},"geometry":{"type":"Point","coordinates":[9.943762637255093,52.09044751487821]}},{"type":"Feature","properties":{"name":"Holzminden","state_ags":"03"},"geometry":{"type":"Point","coordinates":[9.551553314321923,51.880793315642585]}},{"type":"Feature","properties":{"name":"Nienburg (Weser)","state_ags":"03"},"geometry":{"type":"Point","coordinates":[9.114689458367543,52.60917681673193]}},{"type":"Feature","properties":{"name":"Schaumburg","state_ags":"03"},"geometry":{"type":"Point","coordinates":[9.206554131952728,52.2929984205594]}},{"type":"Feature","properties":{"name":"Celle","state_ags":"03"},"geometry":{"type":"Point","coordinates":[10.103478716230427,52.713449611833376]}},{"type":"Feature","properties":{"name":"Cuxhaven","state_ags":"03"},"geometry":{"type":"Point","coordinates":[8.812349673378431,53.61621868262621]}},{"type":"Feature","properties":{"name":"Harburg","state_ags":"03"},"geometry":{"type":"Point","coordinates":[9.963204365241156,53.31583479907303]}},{"type":"Feature","properties":{"name":"Lüchow-Dannenberg","state_ags":"03"},"geometry":{"type":"Point","coordinates":[11.122635786610143,53.02007930052198]}},{"type":"Feature","properties":{"name":"Lüneburg","state_ags":"03"},"geometry":{"type":"Point","coordinates":[10.573074757229245,53.23280988724224]}},{"type":"Feature","properties":{"name":"Osterholz","state_ags":"03"},"geometry":{"type":"Point","coordinates":[8.808586482222553,53.251128586697405]}},{"type":"Feature","properties":{"name":"Rotenburg (Wümme)","state_ags":"03"},"geometry":{"type":"Point","coordinates":[9.306737209706144,53.250573890192086]}},{"type":"Feature","properties":{"name":"Heidekreis","state_ags":"03"},"geometry":{"type":"Point","coordinates":[9.769278303506672,52.928191304982825]}},{"type":"Feature","properties":{"name":"Stade","state_ags":"03"},"geometry":{"type":"Point","coordinates":[9.416783634991011,53.57931571681666]}},{"type":"Feature","properties":{"name":"Uelzen","state_ags":"03"},"geometry":{"type":"Point","coordinates":[10.547873834466856,52.98351940667849]}},{"type":"Feature","properties":{"name":"Delmenhorst","state_ags":"03"},"geometry":{"type":"Point","coordinates":[8.645223297803765,53.04903831548407]}},{"type":"Feature","properties":{"name":"Krefeld","state_ags":"05"},"geometry":{"type":"Point","coordinates":[6.5793719220662155,51.34549734489659]}},{"type":"Feature","properties":{"name":"Emden","state_ags":"03"},"geometry":{"type":"Point","coordinates":[7.182220032610052,53.36126314028472]}},{"type":"Feature","properties":{"name":"Wesel","state_ags":"05"},"geometry":{"type":"Point","coordinates":[6.61882739264922,51.626899238456176]}},{"type":"Feature","properties":{"name":"Oldenburg (Oldenburg)","state_ags":"03"},"geometry":{"type":"Point","coordinates":[8.225106990228925,53.144576035652456]}},{"type":"Feature","properties":{"name":"Osnabrück","state_ags":"03"},"geometry":{"type":"Point","coordinates":[8.047456647389854,52.27759062714739]}},{"type":"Feature","properties":{"name":"Wilhelmshaven","state_ags":"03"},"geometry":{"type":"Point","coordinates":[8.087305899178235,53.56694167661252]}},{"type":"Feature","properties":{"name":"Ammerland","state_ags":"03"},"geometry":{"type":"Point","coordinates":[8.013543727318185,53.218366239202524]}},{"type":"Feature","properties":{"name":"Aurich","state_ags":"03"},"geometry":{"type":"Point","coordinates":[7.3772433362699275,53.48872904560401]}},{"type":"Feature","properties":{"name":"Cloppenburg","state_ags":"03"},"geometry":{"type":"Point","coordinates":[7.904595002560396,52.910782310058195]}},{"type":"Feature","properties":{"name":"Emsland","state_ags":"03"},"geometry":{"type":"Point","coordinates":[7.402539888498077,52.73765009351833]}},{"type":"Feature","properties":{"name":"Friesland","state_ags":"03"},"geometry":{"type":"Point","coordinates":[7.983725004980993,53.504359757637445]}},{"type":"Feature","properties":{"name":"Grafschaft Bentheim","state_ags":"03"},"geometry":{"type":"Point","coordinates":[7.018666640951458,52.47672493124994]}},{"type":"Feature","properties":{"name":"Leer","state_ags":"03"},"geometry":{"type":"Point","coordinates":[7.501038774722699,53.23006026805905]}},{"type":"Feature","properties":{"name":"Oldenburg","state_ags":"03"},"geometry":{"type":"Point","coordinates":[8.389314101235358,52.98829262982398]}},{"type":"Feature","properties":{"name":"Osnabrück","state_ags":"03"},"geometry":{"type":"Point","coordinates":[8.04606266714983,52.38137502313744]}},{"type":"Feature","properties":{"name":"Vechta","state_ags":"03"},"geometry":{"type":"Point","coordinates":[8.223710235214812,52.660400612669726]}},{"type":"Feature","properties":{"name":"Wesermarsch","state_ags":"03"},"geometry":{"type":"Point","coordinates":[8.3900370667081,53.35613321072465]}},{"type":"Feature","properties":{"name":"Wittmund","state_ags":"03"},"geometry":{"type":"Point","coordinates":[7.709955350712287,53.564455657153445]}},{"type":"Feature","properties":{"name":"Bremen","state_ags":"04"},"geometry":{"type":"Point","coordinates":[8.786715103308733,53.10850492784742]}},{"type":"Feature","properties":{"name":"Bremerhaven","state_ags":"04"},"geometry":{"type":"Point","coordinates":[8.587134406712936,53.537923083069245]}},{"type":"Feature","properties":{"name":"Düsseldorf","state_ags":"05"},"geometry":{"type":"Point","coordinates":[6.810469244310367,51.23604467757101]}},{"type":"Feature","properties":{"name":"Duisburg","state_ags":"05"},"geometry":{"type":"Point","coordinates":[6.735080277356714,51.43905933571484]}},{"type":"Feature","properties":{"name":"Essen","state_ags":"05"},"geometry":{"type":"Point","coordinates":[7.0162447590092345,51.43377401080451]}},{"type":"Feature","properties":{"name":"Mönchengladbach","state_ags":"05"},"geometry":{"type":"Point","coordinates":[6.412238744698248,51.16745974548245]}},{"type":"Feature","properties":{"name":"Mülheim an der Ruhr","state_ags":"05"},"geometry":{"type":"Point","coordinates":[6.877740821652568,51.41396315807084]}},{"type":"Feature","properties":{"name":"Oberhausen","state_ags":"05"},"geometry":{"type":"Point","coordinates":[6.8465856267676095,51.51259129692763]}},{"type":"Feature","properties":{"name":"Remscheid","state_ags":"05"},"geometry":{"type":"Point","coordinates":[7.223515821952031,51.182846762104006]}},{"type":"Feature","properties":{"name":"Solingen","state_ags":"05"},"geometry":{"type":"Point","coordinates":[7.066430935177751,51.16182437461144]}},{"type":"Feature","properties":{"name":"Wuppertal","state_ags":"05"},"geometry":{"type":"Point","coordinates":[7.169420178024561,51.250503979977516]}},{"type":"Feature","properties":{"name":"Kleve","state_ags":"05"},"geometry":{"type":"Point","coordinates":[6.259201668460473,51.6522468644968]}},{"type":"Feature","properties":{"name":"Mettmann","state_ags":"05"},"geometry":{"type":"Point","coordinates":[6.968974627709452,51.25636509875781]}},{"type":"Feature","properties":{"name":"Rhein-Kreis Neuss","state_ags":"05"},"geometry":{"type":"Point","coordinates":[6.648656049429453,51.14354849015426]}},{"type":"Feature","properties":{"name":"Viersen","state_ags":"05"},"geometry":{"type":"Point","coordinates":[6.3250447490808135,51.28291278086871]}},{"type":"Feature","properties":{"name":"Bonn","state_ags":"05"},"geometry":{"type":"Point","coordinates":[7.11062273473169,50.70547752705947]}},{"type":"Feature","properties":{"name":"Köln","state_ags":"05"},"geometry":{"type":"Point","coordinates":[6.973129406290632,50.94528780652096]}},{"type":"Feature","properties":{"name":"Leverkusen","state_ags":"05"},"geometry":{"type":"Point","coordinates":[7.014779512234799,51.05229657699284]}},{"type":"Feature","properties":{"name":"Städteregion Aachen","state_ags":"05"},"geometry":{"type":"Point","coordinates":[6.216953161477279,50.732640266368094]}},{"type":"Feature","properties":{"name":"Düren","state_ags":"05"},"geometry":{"type":"Point","coordinates":[6.445655076402159,50.818173727898596]}},{"type":"Feature","properties":{"name":"Rhein-Erft-Kreis","state_ags":"05"},"geometry":{"type":"Point","coordinates":[6.7163646997951245,50.905146484173116]}},{"type":"Feature","properties":{"name":"Euskirchen","state_ags":"05"},"geometry":{"type":"Point","coordinates":[6.644232716260958,50.53620539200005]}},{"type":"Feature","properties":{"name":"Heinsberg","state_ags":"05"},"geometry":{"type":"Point","coordinates":[6.164348189159962,51.04956773563929]}},{"type":"Feature","properties":{"name":"Oberbergischer Kreis","state_ags":"05"},"geometry":{"type":"Point","coordinates":[7.516334703459827,51.01285558188753]}},{"type":"Feature","properties":{"name":"Rheinisch-Bergischer Kreis","state_ags":"05"},"geometry":{"type":"Point","coordinates":[7.194559382088401,51.02264982593048]}},{"type":"Feature","properties":{"name":"Rhein-Sieg-Kreis","state_ags":"05"},"geometry":{"type":"Point","coordinates":[7.234450666613746,50.76088534294197]}},{"type":"Feature","properties":{"name":"Herne","state_ags":"05"},"geometry":{"type":"Point","coordinates":[7.207969703654768,51.53808439346051]}},{"type":"Feature","properties":{"name":"Bottrop","state_ags":"05"},"geometry":{"type":"Point","coordinates":[6.9197458783736705,51.57224899111102]}},{"type":"Feature","properties":{"name":"Ennepe-Ruhr-Kreis","state_ags":"05"},"geometry":{"type":"Point","coordinates":[7.32398168980924,51.34686493135731]}},{"type":"Feature","properties":{"name":"Hochsauerlandkreis","state_ags":"05"},"geometry":{"type":"Point","coordinates":[8.385670147791327,51.30689800548671]}},{"type":"Feature","properties":{"name":"Märkischer Kreis","state_ags":"05"},"geometry":{"type":"Point","coordinates":[7.712598016088223,51.2626777266581]}},{"type":"Feature","properties":{"name":"Olpe","state_ags":"05"},"geometry":{"type":"Point","coordinates":[7.976357899848758,51.08619469850749]}},{"type":"Feature","properties":{"name":"Siegen-Wittgenstein","state_ags":"05"},"geometry":{"type":"Point","coordinates":[8.19544572073705,50.93767621356557]}},{"type":"Feature","properties":{"name":"Soest","state_ags":"05"},"geometry":{"type":"Point","coordinates":[8.217038441101256,51.56448710645693]}},{"type":"Feature","properties":{"name":"Unna","state_ags":"05"},"geometry":{"type":"Point","coordinates":[7.636532463100209,51.57831563223843]}},{"type":"Feature","properties":{"name":"Gelsenkirchen","state_ags":"05"},"geometry":{"type":"Point","coordinates":[7.071573952639215,51.55396986827471]}},{"type":"Feature","properties":{"name":"Münster","state_ags":"05"},"geometry":{"type":"Point","coordinates":[7.623506686054089,51.95433482478992]}},{"type":"Feature","properties":{"name":"Borken","state_ags":"05"},"geometry":{"type":"Point","coordinates":[6.899951997778346,51.961523484866056]}},{"type":"Feature","properties":{"name":"Coesfeld","state_ags":"05"},"geometry":{"type":"Point","coordinates":[7.36644536652697,51.8668577218288]}},{"type":"Feature","properties":{"name":"Recklinghausen","state_ags":"05"},"geometry":{"type":"Point","coordinates":[7.159221889786361,51.6727789455196]}},{"type":"Feature","properties":{"name":"Steinfurt","state_ags":"05"},"geometry":{"type":"Point","coordinates":[7.579545390458547,52.21163103766758]}},{"type":"Feature","properties":{"name":"Warendorf","state_ags":"05"},"geometry":{"type":"Point","coordinates":[7.958091780851092,51.870428206498886]}},{"type":"Feature","properties":{"name":"Bielefeld","state_ags":"05"},"geometry":{"type":"Point","coordinates":[8.541332449993023,52.01114373907903]}},{"type":"Feature","properties":{"name":"Gütersloh","state_ags":"05"},"geometry":{"type":"Point","coordinates":[8.351300466101705,51.93218523248381]}},{"type":"Feature","properties":{"name":"Herford","state_ags":"05"},"geometry":{"type":"Point","coordinates":[8.645062347588134,52.16774885568354]}},{"type":"Feature","properties":{"name":"Höxter","state_ags":"05"},"geometry":{"type":"Point","coordinates":[9.178423543352109,51.685005859498325]}},{"type":"Feature","properties":{"name":"Lippe","state_ags":"05"},"geometry":{"type":"Point","coordinates":[8.950652475197654,51.98116641687343]}},{"type":"Feature","properties":{"name":"Minden-Lübbecke","state_ags":"05"},"geometry":{"type":"Point","coordinates":[8.739581475827253,52.35248864650246]}},{"type":"Feature","properties":{"name":"Paderborn","state_ags":"05"},"geometry":{"type":"Point","coordinates":[8.719679638619255,51.66432113734995]}},{"type":"Feature","properties":{"name":"Vulkaneifel","state_ags":"07"},"geometry":{"type":"Point","coordinates":[6.748192020401336,50.23841243257004]}},{"type":"Feature","properties":{"name":"Trier-Saarburg","state_ags":"07"},"geometry":{"type":"Point","coordinates":[6.69076282202618,49.702780016439085]}},{"type":"Feature","properties":{"name":"Bochum","state_ags":"05"},"geometry":{"type":"Point","coordinates":[7.225001300386838,51.469994264146486]}},{"type":"Feature","properties":{"name":"Dortmund","state_ags":"05"},"geometry":{"type":"Point","coordinates":[7.475026507474402,51.515923763430514]}},{"type":"Feature","properties":{"name":"Hagen","state_ags":"05"},"geometry":{"type":"Point","coordinates":[7.497889823811184,51.347843093614266]}},{"type":"Feature","properties":{"name":"Hamm","state_ags":"05"},"geometry":{"type":"Point","coordinates":[7.823491651736892,51.665007875068625]}},{"type":"Feature","properties":{"name":"Darmstadt","state_ags":"06"},"geometry":{"type":"Point","coordinates":[8.664408509460925,49.88121050605448]}},{"type":"Feature","properties":{"name":"Frankenthal (Pfalz)","state_ags":"07"},"geometry":{"type":"Point","coordinates":[8.357061218737394,49.53352576643484]}},{"type":"Feature","properties":{"name":"Frankfurt am Main","state_ags":"06"},"geometry":{"type":"Point","coordinates":[8.643713251464671,50.118018503355295]}},{"type":"Feature","properties":{"name":"Offenbach am Main","state_ags":"06"},"geometry":{"type":"Point","coordinates":[8.780933047425608,50.09171803870577]}},{"type":"Feature","properties":{"name":"Ludwigshafen am Rhein","state_ags":"07"},"geometry":{"type":"Point","coordinates":[8.396407822190335,49.48210895924194]}},{"type":"Feature","properties":{"name":"Wiesbaden","state_ags":"06"},"geometry":{"type":"Point","coordinates":[8.259542120493741,50.07867104798102]}},{"type":"Feature","properties":{"name":"Bergstraße","state_ags":"06"},"geometry":{"type":"Point","coordinates":[8.643214989816096,49.631284285665316]}},{"type":"Feature","properties":{"name":"Darmstadt-Dieburg","state_ags":"06"},"geometry":{"type":"Point","coordinates":[8.79606059333056,49.85525563300514]}},{"type":"Feature","properties":{"name":"Groß-Gerau","state_ags":"06"},"geometry":{"type":"Point","coordinates":[8.470086411933123,49.90427359918335]}},{"type":"Feature","properties":{"name":"Hochtaunuskreis","state_ags":"06"},"geometry":{"type":"Point","coordinates":[8.504641048894507,50.28171481919586]}},{"type":"Feature","properties":{"name":"Main-Kinzig-Kreis","state_ags":"06"},"geometry":{"type":"Point","coordinates":[9.286248668929465,50.24380960399499]}},{"type":"Feature","properties":{"name":"Main-Taunus-Kreis","state_ags":"06"},"geometry":{"type":"Point","coordinates":[8.434188644176764,50.102396634532695]}},{"type":"Feature","properties":{"name":"Odenwaldkreis","state_ags":"06"},"geometry":{"type":"Point","coordinates":[8.97945495063687,49.67142306529608]}},{"type":"Feature","properties":{"name":"Offenbach","state_ags":"06"},"geometry":{"type":"Point","coordinates":[8.810622965973348,50.022165035649124]}},{"type":"Feature","properties":{"name":"Rheingau-Taunus-Kreis","state_ags":"06"},"geometry":{"type":"Point","coordinates":[8.08125436024909,50.141814739749634]}},{"type":"Feature","properties":{"name":"Wetteraukreis","state_ags":"06"},"geometry":{"type":"Point","coordinates":[8.90726533875128,50.35462621992841]}},{"type":"Feature","properties":{"name":"Gießen","state_ags":"06"},"geometry":{"type":"Point","coordinates":[8.806963762947044,50.57044766616473]}},{"type":"Feature","properties":{"name":"Lahn-Dill-Kreis","state_ags":"06"},"geometry":{"type":"Point","coordinates":[8.364849961920306,50.64821129642068]}},{"type":"Feature","properties":{"name":"Limburg-Weilburg","state_ags":"06"},"geometry":{"type":"Point","coordinates":[8.199377984189537,50.4275288025695]}},{"type":"Feature","properties":{"name":"Marburg-Biedenkopf","state_ags":"06"},"geometry":{"type":"Point","coordinates":[8.737833393675762,50.83670071987655]}},{"type":"Feature","properties":{"name":"Vogelsbergkreis","state_ags":"06"},"geometry":{"type":"Point","coordinates":[9.271315075804551,50.63791515899526]}},{"type":"Feature","properties":{"name":"Kassel","state_ags":"06"},"geometry":{"type":"Point","coordinates":[9.459627050622123,51.311020456693655]}},{"type":"Feature","properties":{"name":"Fulda","state_ags":"06"},"geometry":{"type":"Point","coordinates":[9.759539611484936,50.56403015405168]}},{"type":"Feature","properties":{"name":"Hersfeld-Rotenburg","state_ags":"06"},"geometry":{"type":"Point","coordinates":[9.752811227253694,50.90623265008235]}},{"type":"Feature","properties":{"name":"Kassel","state_ags":"06"},"geometry":{"type":"Point","coordinates":[9.407739135887182,51.40112434407526]}},{"type":"Feature","properties":{"name":"Schwalm-Eder-Kreis","state_ags":"06"},"geometry":{"type":"Point","coordinates":[9.374336562364624,51.02357532393414]}},{"type":"Feature","properties":{"name":"Waldeck-Frankenberg","state_ags":"06"},"geometry":{"type":"Point","coordinates":[8.889502555403526,51.190508452811855]}},{"type":"Feature","properties":{"name":"Werra-Meißner-Kreis","state_ags":"06"},"geometry":{"type":"Point","coordinates":[9.93006006415765,51.19009909718312]}},{"type":"Feature","properties":{"name":"Koblenz","state_ags":"07"},"geometry":{"type":"Point","coordinates":[7.578066290164385,50.34907950554499]}},{"type":"Feature","properties":{"name":"Ahrweiler","state_ags":"07"},"geometry":{"type":"Point","coordinates":[7.045313412328426,50.46773738097114]}},{"type":"Feature","properties":{"name":"Altenkirchen (Westerwald)","state_ags":"07"},"geometry":{"type":"Point","coordinates":[7.744577616044844,50.751112813546776]}},{"type":"Feature","properties":{"name":"Bad Kreuznach","state_ags":"07"},"geometry":{"type":"Point","coordinates":[7.686461053551658,49.82472447833758]}},{"type":"Feature","properties":{"name":"Birkenfeld","state_ags":"07"},"geometry":{"type":"Point","coordinates":[7.277345204724117,49.71229318852114]}},{"type":"Feature","properties":{"name":"Cochem-Zell","state_ags":"07"},"geometry":{"type":"Point","coordinates":[7.174655254129938,50.13284203954116]}},{"type":"Feature","properties":{"name":"Mayen-Koblenz","state_ags":"07"},"geometry":{"type":"Point","coordinates":[7.331863558887675,50.33149749324582]}},{"type":"Feature","properties":{"name":"Neuwied","state_ags":"07"},"geometry":{"type":"Point","coordinates":[7.468724125796269,50.55800156460229]}},{"type":"Feature","properties":{"name":"Rhein-Hunsrück-Kreis","state_ags":"07"},"geometry":{"type":"Point","coordinates":[7.500604057095262,50.04425308269808]}},{"type":"Feature","properties":{"name":"Rhein-Lahn-Kreis","state_ags":"07"},"geometry":{"type":"Point","coordinates":[7.8435406671982255,50.26339275476448]}},{"type":"Feature","properties":{"name":"Westerwaldkreis","state_ags":"07"},"geometry":{"type":"Point","coordinates":[7.8653905091453815,50.55242247197672]}},{"type":"Feature","properties":{"name":"Trier","state_ags":"07"},"geometry":{"type":"Point","coordinates":[6.654879310553998,49.762747775381804]}},{"type":"Feature","properties":{"name":"Bernkastel-Wittlich","state_ags":"07"},"geometry":{"type":"Point","coordinates":[6.967129632274929,49.92484117757205]}},{"type":"Feature","properties":{"name":"Eifelkreis Bitburg-Prüm","state_ags":"07"},"geometry":{"type":"Point","coordinates":[6.409988108905284,50.06246109729871]}},{"type":"Feature","properties":{"name":"Kaiserslautern","state_ags":"07"},"geometry":{"type":"Point","coordinates":[7.759309521746072,49.43366089879896]}},{"type":"Feature","properties":{"name":"Landau in der Pfalz","state_ags":"07"},"geometry":{"type":"Point","coordinates":[8.110540493737675,49.196230115810266]}},{"type":"Feature","properties":{"name":"Mainz","state_ags":"07"},"geometry":{"type":"Point","coordinates":[8.240751498143528,49.97374214448626]}},{"type":"Feature","properties":{"name":"Mannheim","state_ags":"08"},"geometry":{"type":"Point","coordinates":[8.500406328989747,49.49956545438357]}},{"type":"Feature","properties":{"name":"Neckar-Odenwald-Kreis","state_ags":"08"},"geometry":{"type":"Point","coordinates":[9.279720887870049,49.4662604990997]}},{"type":"Feature","properties":{"name":"Rhein-Neckar-Kreis","state_ags":"08"},"geometry":{"type":"Point","coordinates":[8.76610803809261,49.36798577144328]}},{"type":"Feature","properties":{"name":"Neustadt an der Weinstraße","state_ags":"07"},"geometry":{"type":"Point","coordinates":[8.15209377342258,49.342335153638864]}},{"type":"Feature","properties":{"name":"Reutlingen","state_ags":"08"},"geometry":{"type":"Point","coordinates":[9.365624617070294,48.40672022562523]}},{"type":"Feature","properties":{"name":"Tübingen","state_ags":"08"},"geometry":{"type":"Point","coordinates":[8.987505999723599,48.48149554064734]}},{"type":"Feature","properties":{"name":"Zollernalbkreis","state_ags":"08"},"geometry":{"type":"Point","coordinates":[8.937740487395997,48.26707725598156]}},{"type":"Feature","properties":{"name":"Pirmasens","state_ags":"07"},"geometry":{"type":"Point","coordinates":[7.593325528923809,49.19717219279797]}},{"type":"Feature","properties":{"name":"Speyer","state_ags":"07"},"geometry":{"type":"Point","coordinates":[8.43426032044066,49.33002736405726]}},{"type":"Feature","properties":{"name":"Worms","state_ags":"07"},"geometry":{"type":"Point","coordinates":[8.324850907219698,49.65025757250703]}},{"type":"Feature","properties":{"name":"Rosenheim","state_ags":"09"},"geometry":{"type":"Point","coordinates":[12.108188944736279,47.84480441708321]}},{"type":"Feature","properties":{"name":"Altötting","state_ags":"09"},"geometry":{"type":"Point","coordinates":[12.70573386230894,48.209752255535875]}},{"type":"Feature","properties":{"name":"Berchtesgadener Land","state_ags":"09"},"geometry":{"type":"Point","coordinates":[12.901680667833471,47.69867477989475]}},{"type":"Feature","properties":{"name":"Bad Tölz-Wolfratshausen","state_ags":"09"},"geometry":{"type":"Point","coordinates":[11.482693184117975,47.727483185385864]}},{"type":"Feature","properties":{"name":"Dachau","state_ags":"09"},"geometry":{"type":"Point","coordinates":[11.356713282025144,48.33438535073399]}},{"type":"Feature","properties":{"name":"Ebersberg","state_ags":"09"},"geometry":{"type":"Point","coordinates":[11.913442251378916,48.07625260276499]}},{"type":"Feature","properties":{"name":"Zweibrücken","state_ags":"07"},"geometry":{"type":"Point","coordinates":[7.366557206379986,49.24792516936666]}},{"type":"Feature","properties":{"name":"Alzey-Worms","state_ags":"07"},"geometry":{"type":"Point","coordinates":[8.157910957012357,49.75952460724341]}},{"type":"Feature","properties":{"name":"Bad Dürkheim","state_ags":"07"},"geometry":{"type":"Point","coordinates":[8.110794286080704,49.45355274898491]}},{"type":"Feature","properties":{"name":"Donnersbergkreis","state_ags":"07"},"geometry":{"type":"Point","coordinates":[7.915054490823054,49.63182188702759]}},{"type":"Feature","properties":{"name":"Germersheim","state_ags":"07"},"geometry":{"type":"Point","coordinates":[8.245971873401968,49.11584097328335]}},{"type":"Feature","properties":{"name":"Kaiserslautern","state_ags":"07"},"geometry":{"type":"Point","coordinates":[7.685718619871,49.445763683300996]}},{"type":"Feature","properties":{"name":"Kusel","state_ags":"07"},"geometry":{"type":"Point","coordinates":[7.471332511580977,49.54972793505187]}},{"type":"Feature","properties":{"name":"Südliche Weinstraße","state_ags":"07"},"geometry":{"type":"Point","coordinates":[8.053403882067522,49.19107596724597]}},{"type":"Feature","properties":{"name":"Rhein-Pfalz-Kreis","state_ags":"07"},"geometry":{"type":"Point","coordinates":[8.360018984930344,49.41710337763141]}},{"type":"Feature","properties":{"name":"Mainz-Bingen","state_ags":"07"},"geometry":{"type":"Point","coordinates":[8.080624536029005,49.92177799281519]}},{"type":"Feature","properties":{"name":"Südwestpfalz","state_ags":"07"},"geometry":{"type":"Point","coordinates":[7.654913016282311,49.20764541647662]}},{"type":"Feature","properties":{"name":"Stuttgart","state_ags":"08"},"geometry":{"type":"Point","coordinates":[9.171224279197032,48.7748648206443]}},{"type":"Feature","properties":{"name":"Böblingen","state_ags":"08"},"geometry":{"type":"Point","coordinates":[8.94282485750289,48.677647360976195]}},{"type":"Feature","properties":{"name":"Esslingen","state_ags":"08"},"geometry":{"type":"Point","coordinates":[9.36903077321876,48.64809371843788]}},{"type":"Feature","properties":{"name":"Göppingen","state_ags":"08"},"geometry":{"type":"Point","coordinates":[9.717503596531216,48.663141721420736]}},{"type":"Feature","properties":{"name":"Ludwigsburg","state_ags":"08"},"geometry":{"type":"Point","coordinates":[9.12236718398693,48.939982694918655]}},{"type":"Feature","properties":{"name":"Rems-Murr-Kreis","state_ags":"08"},"geometry":{"type":"Point","coordinates":[9.501220540866033,48.89922183549176]}},{"type":"Feature","properties":{"name":"Eichstätt","state_ags":"09"},"geometry":{"type":"Point","coordinates":[11.370416121607738,48.89803352324507]}},{"type":"Feature","properties":{"name":"Erding","state_ags":"09"},"geometry":{"type":"Point","coordinates":[12.000381870243189,48.3003268688282]}},{"type":"Feature","properties":{"name":"Freising","state_ags":"09"},"geometry":{"type":"Point","coordinates":[11.74057378897873,48.447130278631185]}},{"type":"Feature","properties":{"name":"Fürstenfeldbruck","state_ags":"09"},"geometry":{"type":"Point","coordinates":[11.201239928522575,48.18764129473007]}},{"type":"Feature","properties":{"name":"Garmisch-Partenkirchen","state_ags":"09"},"geometry":{"type":"Point","coordinates":[11.129607844593652,47.55630624495784]}},{"type":"Feature","properties":{"name":"Landsberg am Lech","state_ags":"09"},"geometry":{"type":"Point","coordinates":[10.948775464580164,48.02461975448844]}},{"type":"Feature","properties":{"name":"Miesbach","state_ags":"09"},"geometry":{"type":"Point","coordinates":[11.80882353496065,47.741372403634095]}},{"type":"Feature","properties":{"name":"Mühldorf a.Inn","state_ags":"09"},"geometry":{"type":"Point","coordinates":[12.381450477189569,48.23937151174813]}},{"type":"Feature","properties":{"name":"München","state_ags":"09"},"geometry":{"type":"Point","coordinates":[11.63126092260432,48.0746832377948]}},{"type":"Feature","properties":{"name":"Neuburg-Schrobenhausen","state_ags":"09"},"geometry":{"type":"Point","coordinates":[11.19710340380196,48.66468586264248]}},{"type":"Feature","properties":{"name":"Pfaffenhofen a.d.Ilm","state_ags":"09"},"geometry":{"type":"Point","coordinates":[11.524486885448672,48.59675912157088]}},{"type":"Feature","properties":{"name":"Rosenheim","state_ags":"09"},"geometry":{"type":"Point","coordinates":[12.161104107440211,47.87762994158181]}},{"type":"Feature","properties":{"name":"Starnberg","state_ags":"09"},"geometry":{"type":"Point","coordinates":[11.281678487509957,48.00585445211044]}},{"type":"Feature","properties":{"name":"Traunstein","state_ags":"09"},"geometry":{"type":"Point","coordinates":[12.579351747370971,47.89442164851837]}},{"type":"Feature","properties":{"name":"Weilheim-Schongau","state_ags":"09"},"geometry":{"type":"Point","coordinates":[11.04852175371507,47.787629938292376]}},{"type":"Feature","properties":{"name":"Heilbronn","state_ags":"08"},"geometry":{"type":"Point","coordinates":[9.18359548249896,49.15237054762435]}},{"type":"Feature","properties":{"name":"Heilbronn","state_ags":"08"},"geometry":{"type":"Point","coordinates":[9.19014244232326,49.17490342727895]}},{"type":"Feature","properties":{"name":"Hohenlohekreis","state_ags":"08"},"geometry":{"type":"Point","coordinates":[9.614417811134224,49.27151716834227]}},{"type":"Feature","properties":{"name":"Schwäbisch Hall","state_ags":"08"},"geometry":{"type":"Point","coordinates":[9.90929151427275,49.14462106884542]}},{"type":"Feature","properties":{"name":"Main-Tauber-Kreis","state_ags":"08"},"geometry":{"type":"Point","coordinates":[9.725239448261938,49.560873281363875]}},{"type":"Feature","properties":{"name":"Heidenheim","state_ags":"08"},"geometry":{"type":"Point","coordinates":[10.181482771204477,48.66248003381471]}},{"type":"Feature","properties":{"name":"Ostalbkreis","state_ags":"08"},"geometry":{"type":"Point","coordinates":[10.089893036573613,48.87752570998254]}},{"type":"Feature","properties":{"name":"Baden-Baden","state_ags":"08"},"geometry":{"type":"Point","coordinates":[8.232874313072667,48.74846562447656]}},{"type":"Feature","properties":{"name":"Schwandorf","state_ags":"09"},"geometry":{"type":"Point","coordinates":[12.252973886281334,49.36836715527633]}},{"type":"Feature","properties":{"name":"Tirschenreuth","state_ags":"09"},"geometry":{"type":"Point","coordinates":[12.200712200180638,49.89922950193394]}},{"type":"Feature","properties":{"name":"Karlsruhe","state_ags":"08"},"geometry":{"type":"Point","coordinates":[8.413533585014642,49.01127127498203]}},{"type":"Feature","properties":{"name":"Karlsruhe","state_ags":"08"},"geometry":{"type":"Point","coordinates":[8.562925534824508,49.08171853769652]}},{"type":"Feature","properties":{"name":"Rastatt","state_ags":"08"},"geometry":{"type":"Point","coordinates":[8.239103685348757,48.759658555708775]}},{"type":"Feature","properties":{"name":"Heidelberg","state_ags":"08"},"geometry":{"type":"Point","coordinates":[8.693701450449206,49.405189937925876]}},{"type":"Feature","properties":{"name":"Pforzheim","state_ags":"08"},"geometry":{"type":"Point","coordinates":[8.712722384471855,48.87658395216674]}},{"type":"Feature","properties":{"name":"Calw","state_ags":"08"},"geometry":{"type":"Point","coordinates":[8.63576046716712,48.67877156496764]}},{"type":"Feature","properties":{"name":"Enzkreis","state_ags":"08"},"geometry":{"type":"Point","coordinates":[8.736555202032507,48.91382389341732]}},{"type":"Feature","properties":{"name":"Freudenstadt","state_ags":"08"},"geometry":{"type":"Point","coordinates":[8.465212355145434,48.47422622963719]}},{"type":"Feature","properties":{"name":"Freiburg im Breisgau","state_ags":"08"},"geometry":{"type":"Point","coordinates":[7.818620484532835,47.99302167603091]}},{"type":"Feature","properties":{"name":"Breisgau-Hochschwarzwald","state_ags":"08"},"geometry":{"type":"Point","coordinates":[7.92509955253513,47.92522187758014]}},{"type":"Feature","properties":{"name":"Emmendingen","state_ags":"08"},"geometry":{"type":"Point","coordinates":[7.897787351127393,48.1486735776178]}},{"type":"Feature","properties":{"name":"Ortenaukreis","state_ags":"08"},"geometry":{"type":"Point","coordinates":[8.016695282072877,48.42075199193258]}},{"type":"Feature","properties":{"name":"Rottweil","state_ags":"08"},"geometry":{"type":"Point","coordinates":[8.533331400246096,48.25426219423692]}},{"type":"Feature","properties":{"name":"Schwarzwald-Baar-Kreis","state_ags":"08"},"geometry":{"type":"Point","coordinates":[8.41121739962088,48.01912618270903]}},{"type":"Feature","properties":{"name":"Tuttlingen","state_ags":"08"},"geometry":{"type":"Point","coordinates":[8.793855590753862,48.01125373195634]}},{"type":"Feature","properties":{"name":"Konstanz","state_ags":"08"},"geometry":{"type":"Point","coordinates":[8.911837767998488,47.79920791937966]}},{"type":"Feature","properties":{"name":"Lörrach","state_ags":"08"},"geometry":{"type":"Point","coordinates":[7.77406899182738,47.70365366165677]}},{"type":"Feature","properties":{"name":"Waldshut","state_ags":"08"},"geometry":{"type":"Point","coordinates":[8.219079619411525,47.69713922116334]}},{"type":"Feature","properties":{"name":"Ulm","state_ags":"08"},"geometry":{"type":"Point","coordinates":[9.950250031437896,48.39088275358593]}},{"type":"Feature","properties":{"name":"Alb-Donau-Kreis","state_ags":"08"},"geometry":{"type":"Point","coordinates":[9.827382717993157,48.40170316703476]}},{"type":"Feature","properties":{"name":"Biberach","state_ags":"08"},"geometry":{"type":"Point","coordinates":[9.773677954835726,48.10766789477712]}},{"type":"Feature","properties":{"name":"Bodenseekreis","state_ags":"08"},"geometry":{"type":"Point","coordinates":[9.400065753139613,47.73338429900597]}},{"type":"Feature","properties":{"name":"Ravensburg","state_ags":"08"},"geometry":{"type":"Point","coordinates":[9.77989441316565,47.82492227378913]}},{"type":"Feature","properties":{"name":"Sigmaringen","state_ags":"08"},"geometry":{"type":"Point","coordinates":[9.24098807832671,48.03932432328801]}},{"type":"Feature","properties":{"name":"Ingolstadt","state_ags":"09"},"geometry":{"type":"Point","coordinates":[11.394317783417925,48.75532339791576]}},{"type":"Feature","properties":{"name":"München","state_ags":"09"},"geometry":{"type":"Point","coordinates":[11.54648849652672,48.153174976131574]}},{"type":"Feature","properties":{"name":"Landshut","state_ags":"09"},"geometry":{"type":"Point","coordinates":[12.15798945335787,48.54391404064586]}},{"type":"Feature","properties":{"name":"Passau","state_ags":"09"},"geometry":{"type":"Point","coordinates":[13.41515362192262,48.5821168541494]}},{"type":"Feature","properties":{"name":"Straubing","state_ags":"09"},"geometry":{"type":"Point","coordinates":[12.57367370677012,48.880777255258465]}},{"type":"Feature","properties":{"name":"Deggendorf","state_ags":"09"},"geometry":{"type":"Point","coordinates":[13.00073546487201,48.77871310094647]}},{"type":"Feature","properties":{"name":"Freyung-Grafenau","state_ags":"09"},"geometry":{"type":"Point","coordinates":[13.513392905832676,48.82671188861206]}},{"type":"Feature","properties":{"name":"Kelheim","state_ags":"09"},"geometry":{"type":"Point","coordinates":[11.857699505581934,48.82505479693132]}},{"type":"Feature","properties":{"name":"Landshut","state_ags":"09"},"geometry":{"type":"Point","coordinates":[12.19377433777709,48.55714816133125]}},{"type":"Feature","properties":{"name":"Passau","state_ags":"09"},"geometry":{"type":"Point","coordinates":[13.366916894047213,48.55887592429669]}},{"type":"Feature","properties":{"name":"Regen","state_ags":"09"},"geometry":{"type":"Point","coordinates":[13.100121713686164,49.022570842555034]}},{"type":"Feature","properties":{"name":"Rottal-Inn","state_ags":"09"},"geometry":{"type":"Point","coordinates":[12.867889276735445,48.424694108623235]}},{"type":"Feature","properties":{"name":"Straubing-Bogen","state_ags":"09"},"geometry":{"type":"Point","coordinates":[12.581754603382816,48.8986078373637]}},{"type":"Feature","properties":{"name":"Dingolfing-Landau","state_ags":"09"},"geometry":{"type":"Point","coordinates":[12.610525312535893,48.64121695606984]}},{"type":"Feature","properties":{"name":"Amberg","state_ags":"09"},"geometry":{"type":"Point","coordinates":[11.84564293842982,49.451310717186324]}},{"type":"Feature","properties":{"name":"Regensburg","state_ags":"09"},"geometry":{"type":"Point","coordinates":[12.114127935182767,49.01320363500616]}},{"type":"Feature","properties":{"name":"Weiden i.d.OPf.","state_ags":"09"},"geometry":{"type":"Point","coordinates":[12.154949606835295,49.66889203063769]}},{"type":"Feature","properties":{"name":"Amberg-Sulzbach","state_ags":"09"},"geometry":{"type":"Point","coordinates":[11.802744004272997,49.48520594362964]}},{"type":"Feature","properties":{"name":"Cham","state_ags":"09"},"geometry":{"type":"Point","coordinates":[12.694297264808391,49.237080081170774]}},{"type":"Feature","properties":{"name":"Neumarkt i.d.OPf.","state_ags":"09"},"geometry":{"type":"Point","coordinates":[11.566231165012573,49.21612345357561]}},{"type":"Feature","properties":{"name":"Neustadt a.d.Waldnaab","state_ags":"09"},"geometry":{"type":"Point","coordinates":[12.101186353590755,49.685715929909975]}},{"type":"Feature","properties":{"name":"Regensburg","state_ags":"09"},"geometry":{"type":"Point","coordinates":[12.121060404257564,49.02066713345139]}},{"type":"Feature","properties":{"name":"Bamberg","state_ags":"09"},"geometry":{"type":"Point","coordinates":[10.89893833594315,49.88657124848391]}},{"type":"Feature","properties":{"name":"Kaufbeuren","state_ags":"09"},"geometry":{"type":"Point","coordinates":[10.6170809355937,47.87980541831486]}},{"type":"Feature","properties":{"name":"Bayreuth","state_ags":"09"},"geometry":{"type":"Point","coordinates":[11.584501633253153,49.93701901387134]}},{"type":"Feature","properties":{"name":"Havelland","state_ags":"12"},"geometry":{"type":"Point","coordinates":[12.627575812547889,52.62070550441063]}},{"type":"Feature","properties":{"name":"Märkisch-Oderland","state_ags":"12"},"geometry":{"type":"Point","coordinates":[14.146507325340556,52.606896462655314]}},{"type":"Feature","properties":{"name":"Oberhavel","state_ags":"12"},"geometry":{"type":"Point","coordinates":[13.205022104457319,52.90641079480558]}},{"type":"Feature","properties":{"name":"Oberspreewald-Lausitz","state_ags":"12"},"geometry":{"type":"Point","coordinates":[13.943421701287301,51.61575952173113]}},{"type":"Feature","properties":{"name":"Oder-Spree","state_ags":"12"},"geometry":{"type":"Point","coordinates":[14.218757694767788,52.244036172752494]}},{"type":"Feature","properties":{"name":"Ostprignitz-Ruppin","state_ags":"12"},"geometry":{"type":"Point","coordinates":[12.635588904631131,52.99158069247707]}},{"type":"Feature","properties":{"name":"Potsdam-Mittelmark","state_ags":"12"},"geometry":{"type":"Point","coordinates":[12.688652416572525,52.246378430694314]}},{"type":"Feature","properties":{"name":"Coburg","state_ags":"09"},"geometry":{"type":"Point","coordinates":[10.964395909638235,50.26413072017158]}},{"type":"Feature","properties":{"name":"Prignitz","state_ags":"12"},"geometry":{"type":"Point","coordinates":[11.961508629631682,53.10945100603864]}},{"type":"Feature","properties":{"name":"Spree-Neiße","state_ags":"12"},"geometry":{"type":"Point","coordinates":[14.427027556343186,51.75988239916011]}},{"type":"Feature","properties":{"name":"Teltow-Fläming","state_ags":"12"},"geometry":{"type":"Point","coordinates":[13.275971500911606,52.0738510682786]}},{"type":"Feature","properties":{"name":"Uckermark","state_ags":"12"},"geometry":{"type":"Point","coordinates":[13.860497764138474,53.20590828344596]}},{"type":"Feature","properties":{"name":"Rostock","state_ags":"13"},"geometry":{"type":"Point","coordinates":[12.142222303327701,54.14666980256131]}},{"type":"Feature","properties":{"name":"Hof","state_ags":"09"},"geometry":{"type":"Point","coordinates":[11.897524510840183,50.3106352450429]}},{"type":"Feature","properties":{"name":"Bamberg","state_ags":"09"},"geometry":{"type":"Point","coordinates":[10.884584126974488,49.89313753628583]}},{"type":"Feature","properties":{"name":"Bayreuth","state_ags":"09"},"geometry":{"type":"Point","coordinates":[11.556743778156042,49.886404446931365]}},{"type":"Feature","properties":{"name":"Coburg","state_ags":"09"},"geometry":{"type":"Point","coordinates":[10.943874671646757,50.26735097151815]}},{"type":"Feature","properties":{"name":"Forchheim","state_ags":"09"},"geometry":{"type":"Point","coordinates":[11.17327490312091,49.72085597327418]}},{"type":"Feature","properties":{"name":"Hof","state_ags":"09"},"geometry":{"type":"Point","coordinates":[11.824669466428197,50.275389853103356]}},{"type":"Feature","properties":{"name":"Kronach","state_ags":"09"},"geometry":{"type":"Point","coordinates":[11.372204396187106,50.32842499089274]}},{"type":"Feature","properties":{"name":"Kulmbach","state_ags":"09"},"geometry":{"type":"Point","coordinates":[11.482830477285882,50.10288299846835]}},{"type":"Feature","properties":{"name":"Lichtenfels","state_ags":"09"},"geometry":{"type":"Point","coordinates":[11.117042934987417,50.10917003051496]}},{"type":"Feature","properties":{"name":"Wunsiedel i.Fichtelgebirge","state_ags":"09"},"geometry":{"type":"Point","coordinates":[12.04239901525543,50.089846981501736]}},{"type":"Feature","properties":{"name":"Bautzen","state_ags":"14"},"geometry":{"type":"Point","coordinates":[14.230874279108612,51.26900303854519]}},{"type":"Feature","properties":{"name":"Görlitz","state_ags":"14"},"geometry":{"type":"Point","coordinates":[14.751055665167918,51.22535313124064]}},{"type":"Feature","properties":{"name":"Meißen","state_ags":"14"},"geometry":{"type":"Point","coordinates":[13.482708425182421,51.239201329351815]}},{"type":"Feature","properties":{"name":"Sächsische Schweiz-Osterzgebirge","state_ags":"14"},"geometry":{"type":"Point","coordinates":[13.87277371970372,50.91663454192505]}},{"type":"Feature","properties":{"name":"Leipzig","state_ags":"14"},"geometry":{"type":"Point","coordinates":[12.374923525821726,51.34198998435559]}},{"type":"Feature","properties":{"name":"Leipzig","state_ags":"14"},"geometry":{"type":"Point","coordinates":[12.59922914909248,51.22165065651089]}},{"type":"Feature","properties":{"name":"Nordsachsen","state_ags":"14"},"geometry":{"type":"Point","coordinates":[12.78025516613613,51.47275749553977]}},{"type":"Feature","properties":{"name":"Dessau-Roßlau","state_ags":"15"},"geometry":{"type":"Point","coordinates":[12.231416377161445,51.85370543615346]}},{"type":"Feature","properties":{"name":"Halle (Saale)","state_ags":"15"},"geometry":{"type":"Point","coordinates":[11.968936896869751,51.47957563229315]}},{"type":"Feature","properties":{"name":"Ansbach","state_ags":"09"},"geometry":{"type":"Point","coordinates":[10.56364773099997,49.291980804953816]}},{"type":"Feature","properties":{"name":"Erlangen","state_ags":"09"},"geometry":{"type":"Point","coordinates":[10.97872841734133,49.58241056330548]}},{"type":"Feature","properties":{"name":"Fürth","state_ags":"09"},"geometry":{"type":"Point","coordinates":[10.96577700911772,49.49131791766187]}},{"type":"Feature","properties":{"name":"Nürnberg","state_ags":"09"},"geometry":{"type":"Point","coordinates":[11.078617784600558,49.436352394371845]}},{"type":"Feature","properties":{"name":"Schwabach","state_ags":"09"},"geometry":{"type":"Point","coordinates":[11.024072378073898,49.33567414822731]}},{"type":"Feature","properties":{"name":"Ansbach","state_ags":"09"},"geometry":{"type":"Point","coordinates":[10.472911178105484,49.25028591884166]}},{"type":"Feature","properties":{"name":"Erlangen-Höchstadt","state_ags":"09"},"geometry":{"type":"Point","coordinates":[10.914999654827053,49.64009235824371]}},{"type":"Feature","properties":{"name":"Fürth","state_ags":"09"},"geometry":{"type":"Point","coordinates":[10.849418569728723,49.446662160562795]}},{"type":"Feature","properties":{"name":"Nürnberger Land","state_ags":"09"},"geometry":{"type":"Point","coordinates":[11.368981301358124,49.49201234716411]}},{"type":"Feature","properties":{"name":"Neustadt a.d.Aisch-Bad Windsheim","state_ags":"09"},"geometry":{"type":"Point","coordinates":[10.465439744504097,49.56930828449864]}},{"type":"Feature","properties":{"name":"Roth","state_ags":"09"},"geometry":{"type":"Point","coordinates":[11.123136008363423,49.202636500745584]}},{"type":"Feature","properties":{"name":"Weißenburg-Gunzenhausen","state_ags":"09"},"geometry":{"type":"Point","coordinates":[10.893438157040588,49.032375099970096]}},{"type":"Feature","properties":{"name":"Aschaffenburg","state_ags":"09"},"geometry":{"type":"Point","coordinates":[9.14594170354988,49.96363494032163]}},{"type":"Feature","properties":{"name":"Schweinfurt","state_ags":"09"},"geometry":{"type":"Point","coordinates":[10.220889501084232,50.047122043448105]}},{"type":"Feature","properties":{"name":"Würzburg","state_ags":"09"},"geometry":{"type":"Point","coordinates":[9.940919598844374,49.78397314405524]}},{"type":"Feature","properties":{"name":"Aschaffenburg","state_ags":"09"},"geometry":{"type":"Point","coordinates":[9.238527164202063,50.00814793603606]}},{"type":"Feature","properties":{"name":"Bad Kissingen","state_ags":"09"},"geometry":{"type":"Point","coordinates":[9.964169990335478,50.22223008681694]}},{"type":"Feature","properties":{"name":"Rhön-Grabfeld","state_ags":"09"},"geometry":{"type":"Point","coordinates":[10.255472576897915,50.371102369850966]}},{"type":"Feature","properties":{"name":"Haßberge","state_ags":"09"},"geometry":{"type":"Point","coordinates":[10.606644054748095,50.06256460511358]}},{"type":"Feature","properties":{"name":"Kitzingen","state_ags":"09"},"geometry":{"type":"Point","coordinates":[10.255920073926854,49.75300698895006]}},{"type":"Feature","properties":{"name":"Miltenberg","state_ags":"09"},"geometry":{"type":"Point","coordinates":[9.235096543240402,49.75696653286596]}},{"type":"Feature","properties":{"name":"Main-Spessart","state_ags":"09"},"geometry":{"type":"Point","coordinates":[9.66310769941661,49.993336282956626]}},{"type":"Feature","properties":{"name":"Schweinfurt","state_ags":"09"},"geometry":{"type":"Point","coordinates":[10.258013547560571,50.01800515791635]}},{"type":"Feature","properties":{"name":"Würzburg","state_ags":"09"},"geometry":{"type":"Point","coordinates":[9.928295050234173,49.7416575833177]}},{"type":"Feature","properties":{"name":"Augsburg","state_ags":"09"},"geometry":{"type":"Point","coordinates":[10.885452554779,48.345949371377095]}},{"type":"Feature","properties":{"name":"Kempten (Allgäu)","state_ags":"09"},"geometry":{"type":"Point","coordinates":[10.309004527653444,47.73849487881193]}},{"type":"Feature","properties":{"name":"Memmingen","state_ags":"09"},"geometry":{"type":"Point","coordinates":[10.163633526886583,47.978511296795226]}},{"type":"Feature","properties":{"name":"Aichach-Friedberg","state_ags":"09"},"geometry":{"type":"Point","coordinates":[11.052573127692282,48.42747406615432]}},{"type":"Feature","properties":{"name":"Augsburg","state_ags":"09"},"geometry":{"type":"Point","coordinates":[10.732129881093778,48.353500518826706]}},{"type":"Feature","properties":{"name":"Dillingen a.d.Donau","state_ags":"09"},"geometry":{"type":"Point","coordinates":[10.52814819070159,48.59634836977574]}},{"type":"Feature","properties":{"name":"Günzburg","state_ags":"09"},"geometry":{"type":"Point","coordinates":[10.381621962182692,48.352971355367316]}},{"type":"Feature","properties":{"name":"Neu-Ulm","state_ags":"09"},"geometry":{"type":"Point","coordinates":[10.141235971366909,48.2977873641677]}},{"type":"Feature","properties":{"name":"Lindau (Bodensee)","state_ags":"09"},"geometry":{"type":"Point","coordinates":[9.884066900068783,47.60553766052666]}},{"type":"Feature","properties":{"name":"Ostallgäu","state_ags":"09"},"geometry":{"type":"Point","coordinates":[10.639147140606624,47.772652679062396]}},{"type":"Feature","properties":{"name":"Unterallgäu","state_ags":"09"},"geometry":{"type":"Point","coordinates":[10.391223657452942,48.04030325232292]}},{"type":"Feature","properties":{"name":"Donau-Ries","state_ags":"09"},"geometry":{"type":"Point","coordinates":[10.712407178428377,48.80700350570679]}},{"type":"Feature","properties":{"name":"Oberallgäu","state_ags":"09"},"geometry":{"type":"Point","coordinates":[10.26055881349673,47.579471405833615]}},{"type":"Feature","properties":{"name":"Saarbrücken","state_ags":"10"},"geometry":{"type":"Point","coordinates":[6.957414051000224,49.25166151567301]}},{"type":"Feature","properties":{"name":"Merzig-Wadern","state_ags":"10"},"geometry":{"type":"Point","coordinates":[6.680316729058433,49.495691302936876]}},{"type":"Feature","properties":{"name":"Neunkirchen","state_ags":"10"},"geometry":{"type":"Point","coordinates":[7.11761359492724,49.37529256604309]}},{"type":"Feature","properties":{"name":"Saarlouis","state_ags":"10"},"geometry":{"type":"Point","coordinates":[6.775376423439224,49.355165922198125]}},{"type":"Feature","properties":{"name":"Saarpfalz-Kreis","state_ags":"10"},"geometry":{"type":"Point","coordinates":[7.242410187508475,49.24844760766434]}},{"type":"Feature","properties":{"name":"St. Wendel","state_ags":"10"},"geometry":{"type":"Point","coordinates":[7.10034924945051,49.519557904639875]}},{"type":"Feature","properties":{"name":"Berlin","state_ags":"11"},"geometry":{"type":"Point","coordinates":[13.402001576370834,52.50158928109674]}},{"type":"Feature","properties":{"name":"Brandenburg an der Havel","state_ags":"12"},"geometry":{"type":"Point","coordinates":[12.518331111323201,52.40189196076362]}},{"type":"Feature","properties":{"name":"Cottbus","state_ags":"12"},"geometry":{"type":"Point","coordinates":[14.366625255524982,51.771518687684555]}},{"type":"Feature","properties":{"name":"Frankfurt (Oder)","state_ags":"12"},"geometry":{"type":"Point","coordinates":[14.49038008404501,52.32480320047455]}},{"type":"Feature","properties":{"name":"Potsdam","state_ags":"12"},"geometry":{"type":"Point","coordinates":[13.0286674435772,52.42617528633107]}},{"type":"Feature","properties":{"name":"Barnim","state_ags":"12"},"geometry":{"type":"Point","coordinates":[13.703663794273524,52.8228615192796]}},{"type":"Feature","properties":{"name":"Dahme-Spreewald","state_ags":"12"},"geometry":{"type":"Point","coordinates":[13.820263601491288,52.042466256262884]}},{"type":"Feature","properties":{"name":"Elbe-Elster","state_ags":"12"},"geometry":{"type":"Point","coordinates":[13.45928112705332,51.61260388663081]}},{"type":"Feature","properties":{"name":"Schwerin","state_ags":"13"},"geometry":{"type":"Point","coordinates":[11.416728809249937,53.62128669810794]}},{"type":"Feature","properties":{"name":"Mecklenburgische Seenplatte","state_ags":"13"},"geometry":{"type":"Point","coordinates":[13.002129220485317,53.543530508275225]}},{"type":"Feature","properties":{"name":"Rostock, Landkreis","state_ags":"13"},"geometry":{"type":"Point","coordinates":[12.220708324630673,53.91223037393828]}},{"type":"Feature","properties":{"name":"Vorpommern-Rügen","state_ags":"13"},"geometry":{"type":"Point","coordinates":[13.394473407913125,54.43586576995201]}},{"type":"Feature","properties":{"name":"Nordwestmecklenburg","state_ags":"13"},"geometry":{"type":"Point","coordinates":[11.248570283795548,53.818732243866805]}},{"type":"Feature","properties":{"name":"Vorpommern-Greifswald","state_ags":"13"},"geometry":{"type":"Point","coordinates":[13.758484407194395,53.76856751487989]}},{"type":"Feature","properties":{"name":"Ludwigslust-Parchim","state_ags":"13"},"geometry":{"type":"Point","coordinates":[11.534088057801283,53.44996152116261]}},{"type":"Feature","properties":{"name":"Chemnitz","state_ags":"14"},"geometry":{"type":"Point","coordinates":[12.911405370457821,50.82632910265084]}},{"type":"Feature","properties":{"name":"Erzgebirgskreis","state_ags":"14"},"geometry":{"type":"Point","coordinates":[12.94512444058252,50.608831634804076]}},{"type":"Feature","properties":{"name":"Mittelsachsen","state_ags":"14"},"geometry":{"type":"Point","coordinates":[13.137364429417701,50.95551596243962]}},{"type":"Feature","properties":{"name":"Vogtlandkreis","state_ags":"14"},"geometry":{"type":"Point","coordinates":[12.235177127012607,50.457136754767944]}},{"type":"Feature","properties":{"name":"Zwickau","state_ags":"14"},"geometry":{"type":"Point","coordinates":[12.525435768805123,50.750818911686586]}},{"type":"Feature","properties":{"name":"Dresden","state_ags":"14"},"geometry":{"type":"Point","coordinates":[13.783036841398822,51.066391340387]}},{"type":"Feature","properties":{"name":"Magdeburg","state_ags":"15"},"geometry":{"type":"Point","coordinates":[11.64205203710857,52.11636620650095]}},{"type":"Feature","properties":{"name":"Altmarkkreis Salzwedel","state_ags":"15"},"geometry":{"type":"Point","coordinates":[11.226584513242406,52.68021454019083]}},{"type":"Feature","properties":{"name":"Anhalt-Bitterfeld","state_ags":"15"},"geometry":{"type":"Point","coordinates":[12.143001757402324,51.79567305125518]}},{"type":"Feature","properties":{"name":"Börde","state_ags":"15"},"geometry":{"type":"Point","coordinates":[11.347982544505497,52.220842468958935]}},{"type":"Feature","properties":{"name":"Burgenlandkreis","state_ags":"15"},"geometry":{"type":"Point","coordinates":[11.883108479426115,51.14720158763784]}},{"type":"Feature","properties":{"name":"Harz","state_ags":"15"},"geometry":{"type":"Point","coordinates":[10.958821695062285,51.82132432725352]}},{"type":"Feature","properties":{"name":"Jerichower Land","state_ags":"15"},"geometry":{"type":"Point","coordinates":[12.026951262692277,52.26097517941127]}},{"type":"Feature","properties":{"name":"Mansfeld-Südharz","state_ags":"15"},"geometry":{"type":"Point","coordinates":[11.356351263953796,51.535533199351114]}},{"type":"Feature","properties":{"name":"Saalekreis","state_ags":"15"},"geometry":{"type":"Point","coordinates":[11.874612510447008,51.43021482769098]}},{"type":"Feature","properties":{"name":"Salzlandkreis","state_ags":"15"},"geometry":{"type":"Point","coordinates":[11.642725741497589,51.85140980385922]}},{"type":"Feature","properties":{"name":"Stendal","state_ags":"15"},"geometry":{"type":"Point","coordinates":[11.83950073203624,52.697491492911894]}},{"type":"Feature","properties":{"name":"Wittenberg","state_ags":"15"},"geometry":{"type":"Point","coordinates":[12.701522907343415,51.8200645406075]}},{"type":"Feature","properties":{"name":"Erfurt","state_ags":"16"},"geometry":{"type":"Point","coordinates":[11.020501809013703,50.9830242814548]}},{"type":"Feature","properties":{"name":"Gera","state_ags":"16"},"geometry":{"type":"Point","coordinates":[12.082307266103303,50.89331164202129]}},{"type":"Feature","properties":{"name":"Jena","state_ags":"16"},"geometry":{"type":"Point","coordinates":[11.58667815202628,50.923906275396035]}},{"type":"Feature","properties":{"name":"Suhl","state_ags":"16"},"geometry":{"type":"Point","coordinates":[10.718787969547561,50.6210802244133]}},{"type":"Feature","properties":{"name":"Weimar","state_ags":"16"},"geometry":{"type":"Point","coordinates":[11.317391055949082,50.977881425123975]}},{"type":"Feature","properties":{"name":"Eichsfeld","state_ags":"16"},"geometry":{"type":"Point","coordinates":[10.260018645641093,51.3777858812036]}},{"type":"Feature","properties":{"name":"Nordhausen","state_ags":"16"},"geometry":{"type":"Point","coordinates":[10.731039420631411,51.502223998996996]}},{"type":"Feature","properties":{"name":"Wartburgkreis","state_ags":"16"},"geometry":{"type":"Point","coordinates":[10.219642689811877,50.9005580597018]}},{"type":"Feature","properties":{"name":"Unstrut-Hainich-Kreis","state_ags":"16"},"geometry":{"type":"Point","coordinates":[10.562384820695845,51.17875494912243]}},{"type":"Feature","properties":{"name":"Kyffhäuserkreis","state_ags":"16"},"geometry":{"type":"Point","coordinates":[10.984706416475088,51.324938753951095]}},{"type":"Feature","properties":{"name":"Schmalkalden-Meiningen","state_ags":"16"},"geometry":{"type":"Point","coordinates":[10.39711005339297,50.63103132650206]}},{"type":"Feature","properties":{"name":"Gotha","state_ags":"16"},"geometry":{"type":"Point","coordinates":[10.694066086300001,50.91046548075073]}},{"type":"Feature","properties":{"name":"Sömmerda","state_ags":"16"},"geometry":{"type":"Point","coordinates":[11.154043075055823,51.157794672785556]}},{"type":"Feature","properties":{"name":"Hildburghausen","state_ags":"16"},"geometry":{"type":"Point","coordinates":[10.73479690001872,50.43381004408152]}},{"type":"Feature","properties":{"name":"Ilm-Kreis","state_ags":"16"},"geometry":{"type":"Point","coordinates":[10.974808354691847,50.742487125409276]}},{"type":"Feature","properties":{"name":"Weimarer Land","state_ags":"16"},"geometry":{"type":"Point","coordinates":[11.36801705665579,50.97242816998363]}},{"type":"Feature","properties":{"name":"Sonneberg","state_ags":"16"},"geometry":{"type":"Point","coordinates":[11.136289664393383,50.421183853420324]}},{"type":"Feature","properties":{"name":"Saalfeld-Rudolstadt","state_ags":"16"},"geometry":{"type":"Point","coordinates":[11.312422144761886,50.6408347806363]}},{"type":"Feature","properties":{"name":"Saale-Holzland-Kreis","state_ags":"16"},"geometry":{"type":"Point","coordinates":[11.731633875530209,50.9039705224851]}},{"type":"Feature","properties":{"name":"Saale-Orla-Kreis","state_ags":"16"},"geometry":{"type":"Point","coordinates":[11.710931760581422,50.580924923875386]}},{"type":"Feature","properties":{"name":"Greiz","state_ags":"16"},"geometry":{"type":"Point","coordinates":[12.074636431415248,50.74883138768054]}},{"type":"Feature","properties":{"name":"Altenburger Land","state_ags":"16"},"geometry":{"type":"Point","coordinates":[12.398923010768161,50.956492580203296]}}]}