{"type":"FeatureCollection","features":[{"type":"Feature","properties":{"name":"Schleswig-Holstein"},"geometry":{"type":"Point","coordinates":[9.8163079917465,54.17577507807795]}},{"type":"Feature","properties":{"name":"Hamburg"},"geometry":{"type":"Point","coordinates":[10.026188957155835,53.544071703172094]}},{"type":"Feature","properties":{"name":"Niedersachsen"},"geometry":{"type":"Point","coordinates":[9.162770056283865,52.76564374941448]}},{"type":"Feature","properties":{"name":"Bremen"},"geometry":{"type":"Point","coordinates":[8.788541880322754,53.107991177619375]}},{"type":"Feature","properties":{"name":"Nordrhein-Westfalen"},"geometry":{"type":"Point","coordinates":[7.563433399796185,51.480601919515244]}},{"type":"Feature","properties":{"name":"Hessen"},"geometry":{"type":"Point","coordinates":[9.031130966955073,50.60252731338254]}},{"type":"Feature","properties":{"name":"Rheinland-Pfalz"},"geometry":{"type":"Point","coordinates":[7.44917610542316,49.91374212174587]}},{"type":"Feature","properties":{"name":"Baden-Württemberg"},"geometry":{"type":"Point","coordinates":[9.046601634097847,48.54564328122361]}},{"type":"Feature","properties":{"name":"Bayern"},"geometry":{"type":"Point","coordinates":[11.41989397366115,48.94746977261087]}},{"type":"Feature","properties":{"name":"Saarland"},"geometry":{"type":"Point","coordinates":[6.952963913328921,49.38408069315374]}},{"type":"Feature","properties":{"name":"Berlin"},"geometry":{"type":"Point","coordinates":[13.401789918136275,52.50150284138981]}},{"type":"Feature","properties":{"name":"Brandenburg"},"geometry":{"type":"Point","coordinates":[13.397710783266604,52.4739092001912]}},{"type":"Feature","properties":{"name":"Mecklenburg-Vorpommern"},"geometry":{"type":"Point","coordinates":[12.47172246166004,53.71743835457158]}},{"type":"Feature","properties":{"name":"Sachsen"},"geometry":{"type":"Point","coordinates":[13.34824517056342,51.05227733401192]}},{"type":"Feature","properties":{"name":"Sachsen-Anhalt"},"geometry":{"type":"Point","coordinates":[11.70107609384262,52.01307869986921]}},{"type":"Feature","properties":{"name":"Thüringen"},"geometry":{"type":"Point","coordinates":[11.025340598793594,50.90352839072139]}}]}