{"type":"FeatureCollection","features":[{"type":"Feature","id":"01","properties":{"level":"state","ags":"01","name":"Schleswig-Holstein","share":10.3,"pop":2959517,"foreign":304830,"german":2654687},"geometry":{"type":"MultiPolygon","coordinates":[[[[9.698,53.561],[9.692,53.562],[9.7,53.56],[9.698,53.561]]],[[[11.209,54.414],[11.21,54.416],[11.208,54.417],[11.209,54.414]]],[[[9.564,54.507],[9.565,54.51],[9.561,54.508],[9.564,54.507]]],[[[9.72,53.559],[9.716,53.559],[9.73,53.558],[9.72,53.559]]],[[[8.51,54.527],[8.517,54.529],[8.507,54.528],[8.51,54.527]]],[[[11.082,54.439],[11.089,54.436],[11.091,54.438],[11.082,54.439]]],[[[8.771,54.637],[8.766,54.638],[8.761,54.636],[8.771,54.637]]],[[[9.557,53.638],[9.556,53.642],[9.549,53.647],[9.557,53.638]]],[[[8.731,54.468],[8.718,54.466],[8.736,54.468],[8.731,54.468]]],[[[8.553,54.46],[8.562,54.465],[8.548,54.469],[8.553,54.46]]],[[[8.825,54.604],[8.808,54.604],[8.819,54.595],[8.833,54.603],[8.825,54.604]]],[[[7.92,54.188],[7.901,54.187],[7.911,54.181],[7.92,54.188]]],[[[7.884,54.189],[7.869,54.188],[7.89,54.172],[7.884,54.189]]],[[[8.699,54.681],[8.681,54.675],[8.713,54.68],[8.699,54.681]]],[[[9.417,53.759],[9.389,53.8],[9.406,53.769],[9.417,53.759]]],[[[8.816,54.553],[8.789,54.552],[8.828,54.546],[8.816,54.553]]],[[[8.689,54.06],[8.697,54.069],[8.681,54.051],[8.699,54.046],[8.684,54.052],[8.7,54.058],[8.689,54.06]]],[[[8.737,54.643],[8.71,54.632],[8.729,54.629],[8.737,54.643]]],[[[9.544,53.657],[9.542,53.665],[9.535,53.645],[9.559,53.626],[9.544,53.657]]],[[[9.527,53.666],[9.521,53.698],[9.496,53.711],[9.527,53.666]]],[[[8.518,54.579],[8.509,54.577],[8.548,54.557],[8.574,54.561],[8.557,54.579],[8.518,54.579]]],[[[8.657,54.644],[8.663,54.656],[8.652,54.658],[8.529,54.627],[8.548,54.618],[8.657,54.644]]],[[[8.383,54.64],[8.361,54.65],[8.337,54.687],[8.359,54.711],[8.305,54.667],[8.355,54.624],[8.402,54.626],[8.382,54.631],[8.383,54.64]]],[[[8.707,54.549],[8.688,54.555],[8.595,54.534],[8.588,54.516],[8.625,54.489],[8.67,54.495],[8.686,54.51],[8.7,54.501],[8.687,54.522],[8.707,54.549]]],[[[8.563,54.752],[8.427,54.746],[8.395,54.709],[8.471,54.683],[8.566,54.68],[8.597,54.719],[8.586,54.744],[8.563,54.752]]],[[[11.086,54.531],[11.064,54.535],[11.031,54.512],[11.01,54.483],[11.008,54.442],[11.047,54.428],[11.022,54.443],[11.063,54.453],[11.095,54.445],[11.095,54.41],[11.121,54.402],[11.178,54.402],[11.187,54.409],[11.166,54.413],[11.191,54.422],[11.211,54.417],[11.197,54.407],[11.313,54.402],[11.233,54.502],[11.086,54.531]]],[[[8.449,55.05],[8.396,55.052],[8.302,54.918],[8.288,54.877],[8.279,54.752],[8.296,54.745],[8.301,54.764],[8.292,54.786],[8.299,54.849],[8.333,54.863],[8.341,54.881],[8.414,54.847],[8.51,54.881],[8.603,54.886],[8.613,54.878],[8.608,54.841],[8.659,54.795],[8.681,54.79],[8.715,54.738],[8.686,54.73],[8.741,54.716],[8.753,54.681],[8.828,54.65],[8.893,54.597],[8.869,54.562],[8.871,54.528],[8.806,54.498],[8.819,54.487],[8.807,54.47],[8.895,54.459],[8.921,54.47],[8.949,54.501],[8.945,54.512],[8.985,54.524],[9.016,54.484],[9.004,54.479],[9.025,54.473],[8.959,54.454],[8.911,54.418],[8.871,54.405],[8.809,54.411],[8.646,54.393],[8.639,54.369],[8.647,54.381],[8.69,54.373],[8.692,54.356],[8.6,54.334],[8.608,54.309],[8.684,54.266],[8.705,54.288],[8.738,54.294],[8.772,54.282],[8.822,54.291],[8.84,54.282],[8.84,54.222],[8.809,54.171],[8.858,54.119],[8.858,54.128],[8.869,54.125],[8.86,54.119],[8.927,54.132],[8.948,54.091],[8.977,54.071],[8.959,54.063],[8.985,54.06],[8.959,54.034],[8.926,54.029],[8.882,54.043],[8.836,54.03],[8.864,53.995],[8.901,53.986],[8.883,53.971],[8.918,53.926],[8.952,53.903],[8.982,53.891],[9.019,53.9],[9.02,53.89],[9.042,53.899],[9.219,53.889],[9.327,53.86],[9.402,53.824],[9.401,53.795],[9.442,53.741],[9.522,53.713],[9.552,53.671],[9.552,53.649],[9.58,53.623],[9.566,53.632],[9.555,53.621],[9.674,53.572],[9.734,53.565],[9.764,53.627],[9.798,53.608],[9.79,53.604],[9.798,53.596],[9.837,53.588],[9.89,53.622],[9.905,53.652],[9.986,53.647],[9.999,53.681],[10.069,53.679],[10.061,53.688],[10.082,53.72],[10.121,53.713],[10.163,53.738],[10.194,53.731],[10.14,53.68],[10.196,53.655],[10.19,53.638],[10.222,53.634],[10.189,53.613],[10.201,53.584],[10.153,53.578],[10.153,53.54],[10.171,53.537],[10.164,53.52],[10.211,53.52],[10.219,53.499],[10.301,53.444],[10.326,53.45],[10.308,53.433],[10.375,53.425],[10.499,53.374],[10.574,53.36],[10.617,53.385],[10.632,53.455],[10.693,53.455],[10.702,53.478],[10.756,53.483],[10.786,53.51],[10.824,53.514],[10.815,53.522],[10.832,53.543],[10.823,53.575],[10.864,53.565],[10.924,53.584],[10.917,53.599],[10.93,53.629],[10.955,53.657],[10.939,53.666],[10.942,53.685],[10.905,53.703],[10.851,53.7],[10.811,53.72],[10.806,53.739],[10.758,53.748],[10.773,53.792],[10.748,53.852],[10.772,53.874],[10.847,53.897],[10.883,53.924],[10.911,53.915],[10.902,53.906],[10.911,53.898],[10.968,53.909],[10.898,53.922],[10.909,53.948],[10.883,53.959],[10.879,53.986],[10.787,53.997],[10.751,54.045],[10.799,54.083],[10.809,54.107],[10.824,54.089],[10.878,54.088],[10.955,54.141],[11.093,54.199],[11.076,54.347],[11.058,54.353],[11.125,54.373],[11.128,54.39],[11.108,54.398],[11.073,54.377],[11.024,54.368],[10.98,54.376],[11.022,54.38],[10.931,54.382],[10.79,54.312],[10.707,54.305],[10.6,54.364],[10.474,54.392],[10.388,54.426],[10.316,54.435],[10.276,54.421],[10.29,54.419],[10.226,54.414],[10.194,54.379],[10.196,54.366],[10.178,54.361],[10.171,54.333],[10.135,54.315],[10.158,54.338],[10.141,54.354],[10.152,54.363],[10.14,54.368],[10.192,54.39],[10.169,54.433],[10.199,54.456],[10.128,54.485],[9.868,54.448],[9.833,54.474],[9.88,54.476],[9.998,54.522],[10.027,54.551],[10.034,54.658],[10.014,54.66],[10.035,54.671],[10.01,54.662],[10.003,54.674],[9.988,54.664],[9.949,54.674],[9.938,54.623],[9.82,54.583],[9.749,54.547],[9.735,54.528],[9.767,54.526],[9.697,54.519],[9.708,54.492],[9.642,54.511],[9.575,54.501],[9.545,54.509],[9.587,54.51],[9.627,54.531],[9.634,54.513],[9.647,54.524],[9.712,54.52],[9.714,54.533],[9.735,54.532],[9.769,54.565],[9.77,54.58],[9.793,54.574],[9.909,54.634],[9.931,54.628],[9.938,54.673],[9.978,54.682],[9.983,54.701],[9.993,54.682],[10.03,54.69],[10.022,54.684],[10.035,54.684],[10.034,54.672],[10.035,54.69],[9.989,54.718],[9.957,54.78],[9.909,54.8],[9.905,54.763],[9.894,54.771],[9.875,54.752],[9.841,54.757],[9.792,54.798],[9.604,54.831],[9.59,54.851],[9.613,54.877],[9.589,54.876],[9.499,54.823],[9.465,54.822],[9.438,54.803],[9.437,54.789],[9.429,54.8],[9.438,54.809],[9.411,54.842],[9.383,54.839],[9.344,54.8],[9.295,54.802],[9.25,54.81],[9.236,54.831],[9.24,54.85],[9.143,54.873],[9.048,54.872],[8.948,54.903],[8.859,54.897],[8.824,54.907],[8.728,54.893],[8.638,54.911],[8.635,54.894],[8.61,54.888],[8.426,54.878],[8.366,54.904],[8.353,54.968],[8.38,54.997],[8.44,55.016],[8.396,55.046],[8.464,55.046],[8.449,55.05]]]]}},{"type":"Feature","id":"02","properties":{"level":"state","ags":"02","name":"Hamburg","share":19.3,"pop":1862565,"foreign":359475,"german":1503090},"geometry":{"type":"MultiPolygon","coordinates":[[[[9.731,53.558],[9.73,53.558],[9.732,53.557],[9.731,53.558]]],[[[9.752,53.557],[9.74,53.557],[9.783,53.551],[9.752,53.557]]],[[[8.458,53.957],[8.438,53.964],[8.42,53.948],[8.458,53.957]]],[[[8.503,53.928],[8.491,53.929],[8.487,53.914],[8.517,53.921],[8.503,53.928]]],[[[10.186,53.731],[10.163,53.738],[10.121,53.713],[10.082,53.72],[10.061,53.688],[10.069,53.679],[9.999,53.681],[9.986,53.647],[9.905,53.652],[9.89,53.622],[9.829,53.585],[9.764,53.627],[9.734,53.565],[9.826,53.553],[9.81,53.541],[9.825,53.533],[9.817,53.529],[9.765,53.541],[9.778,53.519],[9.764,53.508],[9.782,53.491],[9.802,53.493],[9.8,53.47],[9.862,53.43],[9.862,53.44],[9.902,53.457],[9.921,53.437],[9.907,53.416],[9.949,53.431],[9.984,53.415],[10.029,53.435],[10.021,53.447],[10.046,53.447],[10.052,53.464],[10.169,53.398],[10.239,53.396],[10.26,53.419],[10.318,53.435],[10.326,53.45],[10.302,53.443],[10.219,53.499],[10.211,53.52],[10.165,53.52],[10.171,53.537],[10.153,53.54],[10.153,53.578],[10.201,53.584],[10.189,53.613],[10.222,53.634],[10.19,53.638],[10.196,53.655],[10.14,53.68],[10.159,53.691],[10.158,53.705],[10.182,53.709],[10.186,53.731]]]]}},{"type":"Feature","id":"03","properties":{"level":"state","ags":"03","name":"Niedersachsen","share":11.6,"pop":8004489,"foreign":928521,"german":7075968},"geometry":{"type":"MultiPolygon","coordinates":[[[[9.774,53.551],[9.773,53.55],[9.774,53.55],[9.774,53.551]]],[[[9.527,53.664],[9.52,53.674],[9.526,53.664],[9.527,53.664]]],[[[6.867,53.59],[6.869,53.591],[6.865,53.59],[6.867,53.59]]],[[[9.61,53.584],[9.572,53.602],[9.593,53.588],[9.61,53.584]],[[9.689,53.562],[9.663,53.564],[9.774,53.554],[9.689,53.562]]],[[[9.445,53.719],[9.48,53.698],[9.466,53.713],[9.445,53.719]]],[[[6.907,53.65],[6.865,53.642],[6.894,53.626],[6.893,53.645],[6.907,53.65]]],[[[7.432,53.727],[7.394,53.736],[7.359,53.727],[7.432,53.727]]],[[[7.885,53.795],[7.846,53.787],[7.865,53.772],[7.876,53.789],[7.978,53.778],[7.885,53.795]]],[[[7.103,53.681],[7.059,53.689],[6.854,53.664],[7.103,53.681]]],[[[7.725,53.782],[7.683,53.776],[7.666,53.76],[7.683,53.751],[7.696,53.766],[7.74,53.761],[7.821,53.779],[7.725,53.782]]],[[[7.565,53.759],[7.48,53.754],[7.461,53.725],[7.496,53.723],[7.512,53.743],[7.643,53.754],[7.565,53.759]]],[[[7.344,53.726],[7.187,53.723],[7.137,53.707],[7.153,53.697],[7.17,53.708],[7.27,53.704],[7.347,53.717],[7.344,53.726]]],[[[6.785,53.613],[6.656,53.608],[6.639,53.593],[6.654,53.598],[6.665,53.578],[6.718,53.557],[6.707,53.568],[6.748,53.557],[6.757,53.568],[6.717,53.582],[6.818,53.601],[6.785,53.613]]],[[[8.687,53.89],[8.615,53.882],[8.566,53.846],[8.542,53.807],[8.545,53.789],[8.483,53.694],[8.484,53.656],[8.52,53.606],[8.593,53.593],[8.651,53.603],[8.617,53.574],[8.631,53.556],[8.646,53.556],[8.639,53.535],[8.651,53.511],[8.606,53.484],[8.493,53.472],[8.509,53.498],[8.553,53.516],[8.551,53.538],[8.518,53.558],[8.464,53.552],[8.399,53.569],[8.338,53.612],[8.291,53.613],[8.243,53.582],[8.227,53.52],[8.309,53.523],[8.316,53.46],[8.28,53.413],[8.251,53.399],[8.203,53.403],[8.152,53.448],[8.099,53.446],[8.071,53.467],[8.062,53.506],[8.154,53.514],[8.169,53.544],[8.142,53.58],[8.156,53.586],[8.149,53.602],[8.123,53.599],[8.084,53.644],[8.045,53.641],[8.02,53.684],[8.032,53.705],[8.012,53.712],[7.912,53.718],[7.704,53.704],[7.527,53.671],[7.481,53.683],[7.343,53.686],[7.243,53.669],[7.157,53.629],[7.087,53.571],[7.132,53.533],[7.086,53.521],[7.077,53.533],[7.034,53.534],[7.049,53.508],[7.024,53.482],[7.011,53.385],[6.998,53.365],[7.029,53.336],[7.306,53.323],[7.246,53.319],[7.229,53.294],[7.233,53.268],[7.209,53.243],[7.218,53.199],[7.208,53.188],[7.227,53.18],[7.204,53.176],[7.179,53.139],[7.183,53.122],[7.203,53.113],[7.217,53.007],[7.182,52.941],[7.087,52.85],[7.093,52.838],[7.072,52.811],[7.056,52.643],[7.042,52.633],[6.873,52.653],[6.742,52.645],[6.71,52.628],[6.727,52.615],[6.719,52.589],[6.767,52.562],[6.726,52.563],[6.716,52.549],[6.681,52.553],[6.705,52.52],[6.698,52.486],[6.753,52.464],[6.854,52.46],[6.853,52.45],[6.942,52.435],[6.992,52.467],[7.011,52.429],[7.036,52.403],[7.059,52.399],[7.072,52.373],[7.072,52.352],[7.026,52.287],[7.042,52.256],[7.067,52.241],[7.153,52.267],[7.298,52.264],[7.386,52.309],[7.427,52.314],[7.438,52.333],[7.505,52.361],[7.582,52.376],[7.571,52.381],[7.603,52.421],[7.564,52.432],[7.604,52.475],[7.684,52.457],[7.714,52.401],[7.807,52.371],[7.892,52.381],[7.937,52.365],[7.942,52.348],[7.953,52.347],[7.949,52.335],[7.991,52.31],[7.932,52.302],[7.931,52.286],[7.956,52.272],[7.926,52.263],[7.927,52.227],[7.9,52.207],[7.934,52.177],[8.017,52.172],[8.023,52.16],[7.997,52.154],[8.008,52.115],[7.972,52.116],[7.885,52.084],[7.917,52.052],[7.981,52.036],[8.033,52.068],[8.096,52.057],[8.152,52.076],[8.192,52.073],[8.209,52.097],[8.267,52.132],[8.405,52.111],[8.415,52.139],[8.482,52.16],[8.517,52.185],[8.46,52.196],[8.442,52.213],[8.468,52.247],[8.458,52.302],[8.472,52.315],[8.443,52.359],[8.314,52.406],[8.322,52.426],[8.304,52.434],[8.297,52.456],[8.418,52.444],[8.454,52.461],[8.459,52.492],[8.509,52.515],[8.557,52.499],[8.653,52.531],[8.702,52.503],[8.703,52.443],[8.718,52.429],[8.705,52.419],[8.707,52.395],[8.855,52.389],[8.892,52.406],[8.937,52.402],[8.941,52.416],[8.987,52.433],[8.978,52.451],[9.017,52.46],[9.052,52.5],[9.099,52.497],[9.137,52.476],[9.095,52.443],[9.124,52.422],[9.122,52.402],[9.095,52.387],[9.084,52.355],[9.058,52.34],[9.027,52.346],[8.998,52.326],[8.988,52.288],[8.964,52.279],[8.979,52.275],[8.975,52.263],[9.076,52.233],[9.036,52.225],[9.045,52.184],[8.986,52.195],[9.022,52.172],[9.018,52.132],[9.063,52.148],[9.153,52.129],[9.159,52.12],[9.133,52.097],[9.156,52.098],[9.193,52.07],[9.172,52.047],[9.197,52.012],[9.179,52.003],[9.197,51.997],[9.176,51.98],[9.209,51.96],[9.217,51.974],[9.274,51.974],[9.286,51.957],[9.264,51.948],[9.277,51.944],[9.272,51.932],[9.341,51.908],[9.344,51.88],[9.336,51.856],[9.323,51.855],[9.46,51.863],[9.433,51.841],[9.442,51.829],[9.427,51.81],[9.448,51.795],[9.375,51.744],[9.394,51.732],[9.387,51.719],[9.402,51.702],[9.375,51.65],[9.453,51.646],[9.495,51.657],[9.492,51.635],[9.516,51.626],[9.544,51.64],[9.571,51.625],[9.626,51.637],[9.638,51.609],[9.691,51.576],[9.684,51.567],[9.627,51.582],[9.648,51.553],[9.609,51.557],[9.619,51.53],[9.586,51.519],[9.644,51.469],[9.628,51.444],[9.644,51.418],[9.631,51.406],[9.579,51.402],[9.564,51.387],[9.56,51.376],[9.577,51.37],[9.548,51.359],[9.568,51.34],[9.633,51.326],[9.629,51.312],[9.669,51.318],[9.732,51.295],[9.768,51.307],[9.772,51.336],[9.738,51.319],[9.702,51.365],[9.801,51.387],[9.794,51.407],[9.841,51.403],[9.84,51.384],[9.865,51.372],[9.851,51.414],[9.878,51.404],[9.906,51.421],[9.907,51.408],[9.931,51.393],[9.928,51.375],[10,51.404],[10.009,51.421],[10.038,51.42],[10.047,51.437],[10.069,51.418],[10.08,51.435],[10.15,51.429],[10.14,51.443],[10.174,51.446],[10.186,51.462],[10.178,51.47],[10.202,51.487],[10.217,51.47],[10.236,51.471],[10.245,51.484],[10.3,51.494],[10.309,51.515],[10.342,51.519],[10.379,51.563],[10.37,51.588],[10.444,51.59],[10.519,51.554],[10.56,51.557],[10.604,51.58],[10.661,51.561],[10.666,51.578],[10.634,51.594],[10.633,51.608],[10.649,51.607],[10.638,51.619],[10.701,51.642],[10.671,51.667],[10.668,51.71],[10.642,51.725],[10.626,51.759],[10.591,51.769],[10.574,51.811],[10.588,51.836],[10.579,51.848],[10.649,51.889],[10.648,51.908],[10.613,51.922],[10.613,51.939],[10.651,51.958],[10.62,51.958],[10.561,52.004],[10.592,52.014],[10.626,52.008],[10.655,52.025],[10.648,52.042],[10.687,52.048],[10.964,52.057],[10.971,52.086],[10.942,52.103],[11.044,52.134],[11.06,52.172],[11.019,52.178],[11.014,52.2],[11.086,52.229],[11.073,52.243],[11.059,52.241],[11.052,52.267],[11.014,52.287],[11.039,52.302],[11.036,52.31],[10.984,52.342],[11.057,52.35],[11.074,52.374],[11.015,52.388],[11.006,52.409],[10.934,52.461],[10.95,52.496],[11.009,52.497],[10.938,52.567],[10.947,52.583],[10.94,52.59],[10.976,52.607],[10.977,52.624],[10.921,52.61],[10.83,52.716],[10.797,52.714],[10.792,52.748],[10.755,52.785],[10.757,52.82],[10.772,52.834],[10.765,52.84],[10.94,52.853],[10.986,52.882],[11.002,52.911],[11.099,52.913],[11.093,52.899],[11.106,52.896],[11.155,52.906],[11.221,52.898],[11.241,52.879],[11.291,52.889],[11.295,52.875],[11.314,52.878],[11.407,52.904],[11.47,52.939],[11.505,52.941],[11.492,52.96],[11.512,53.007],[11.556,52.999],[11.559,53.013],[11.598,53.036],[11.548,53.052],[11.506,53.049],[11.448,53.078],[11.334,53.057],[11.273,53.097],[11.267,53.12],[11.246,53.136],[11.185,53.136],[11.172,53.157],[11.194,53.181],[11.137,53.192],[11.138,53.203],[11.08,53.221],[11.028,53.278],[11.009,53.281],[10.988,53.333],[10.928,53.348],[10.88,53.336],[10.888,53.324],[10.866,53.327],[10.87,53.318],[10.836,53.305],[10.76,53.33],[10.763,53.339],[10.738,53.342],[10.703,53.369],[10.574,53.36],[10.499,53.374],[10.371,53.426],[10.306,53.433],[10.259,53.418],[10.237,53.396],[10.176,53.397],[10.052,53.464],[10.046,53.447],[10.021,53.447],[10.029,53.435],[9.984,53.415],[9.949,53.431],[9.907,53.416],[9.921,53.437],[9.902,53.457],[9.862,53.44],[9.862,53.43],[9.8,53.47],[9.802,53.493],[9.782,53.491],[9.764,53.508],[9.778,53.519],[9.768,53.546],[9.685,53.548],[9.54,53.613],[9.493,53.678],[9.417,53.725],[9.326,53.826],[9.275,53.858],[9.09,53.862],[9.021,53.843],[9.027,53.825],[8.987,53.84],[8.823,53.831],[8.729,53.857],[8.687,53.89]],[[8.612,53.197],[8.613,53.199],[8.616,53.197],[8.612,53.197]],[[8.644,53.61],[8.661,53.607],[8.654,53.603],[8.644,53.61]],[[8.505,53.229],[8.554,53.208],[8.599,53.213],[8.581,53.199],[8.593,53.184],[8.628,53.198],[8.664,53.176],[8.699,53.185],[8.775,53.159],[8.829,53.164],[8.864,53.132],[8.912,53.133],[8.945,53.152],[8.984,53.126],[8.947,53.116],[8.991,53.097],[8.961,53.085],[8.964,53.057],[8.98,53.047],[8.916,53.011],[8.891,53.015],[8.867,53.041],[8.867,53.022],[8.822,53.021],[8.771,53.053],[8.731,53.035],[8.71,53.046],[8.709,53.076],[8.666,53.092],[8.67,53.103],[8.631,53.138],[8.619,53.168],[8.505,53.201],[8.482,53.226],[8.505,53.229]]]]}},{"type":"Feature","id":"04","properties":{"level":"state","ags":"04","name":"Bremen","share":22.8,"pop":704881,"foreign":160713,"german":544168},"geometry":{"type":"MultiPolygon","coordinates":[[[[8.616,53.197],[8.613,53.199],[8.612,53.197],[8.616,53.197]]],[[[8.647,53.61],[8.644,53.605],[8.661,53.607],[8.647,53.61]]],[[[8.539,53.606],[8.509,53.603],[8.576,53.536],[8.561,53.509],[8.553,53.516],[8.515,53.501],[8.493,53.472],[8.606,53.484],[8.651,53.511],[8.639,53.535],[8.646,53.556],[8.631,53.556],[8.617,53.574],[8.651,53.603],[8.593,53.593],[8.539,53.606]]],[[[8.505,53.229],[8.482,53.226],[8.505,53.201],[8.619,53.168],[8.631,53.138],[8.67,53.103],[8.666,53.092],[8.709,53.076],[8.71,53.046],[8.731,53.035],[8.771,53.053],[8.822,53.021],[8.867,53.022],[8.867,53.041],[8.891,53.015],[8.916,53.011],[8.98,53.047],[8.964,53.057],[8.961,53.085],[8.991,53.097],[8.947,53.116],[8.984,53.126],[8.945,53.152],[8.912,53.133],[8.864,53.132],[8.829,53.164],[8.775,53.159],[8.699,53.185],[8.664,53.176],[8.628,53.198],[8.593,53.184],[8.581,53.199],[8.599,53.213],[8.554,53.208],[8.505,53.229]]]]}},{"type":"Feature","id":"05","properties":{"level":"state","ags":"05","name":"Nordrhein-Westfalen","share":15.8,"pop":18034454,"foreign":2849444,"german":15185010},"geometry":{"type":"MultiPolygon","coordinates":[[[[6.205,50.522],[6.195,50.531],[6.187,50.527],[6.205,50.522]]],[[[6.193,50.663],[6.167,50.661],[6.184,50.649],[6.193,50.663]]],[[[6.182,50.645],[6.167,50.644],[6.182,50.624],[6.194,50.634],[6.271,50.63],[6.232,50.648],[6.182,50.645]]],[[[6.238,50.578],[6.225,50.59],[6.174,50.558],[6.178,50.542],[6.197,50.536],[6.238,50.578]]],[[[8.67,52.519],[8.653,52.531],[8.557,52.499],[8.509,52.515],[8.459,52.492],[8.454,52.461],[8.418,52.444],[8.297,52.456],[8.304,52.434],[8.322,52.426],[8.314,52.406],[8.443,52.359],[8.472,52.315],[8.458,52.302],[8.468,52.247],[8.442,52.213],[8.46,52.196],[8.517,52.185],[8.482,52.16],[8.415,52.139],[8.404,52.129],[8.411,52.115],[8.395,52.109],[8.343,52.124],[8.298,52.121],[8.287,52.135],[8.221,52.106],[8.192,52.073],[8.152,52.076],[8.096,52.057],[8.033,52.068],[7.981,52.036],[7.917,52.052],[7.885,52.084],[7.972,52.116],[8.008,52.115],[7.997,52.154],[8.025,52.164],[8.008,52.176],[7.934,52.177],[7.9,52.207],[7.927,52.227],[7.926,52.263],[7.956,52.272],[7.931,52.286],[7.932,52.302],[7.991,52.31],[7.949,52.335],[7.953,52.347],[7.942,52.348],[7.937,52.365],[7.892,52.381],[7.807,52.371],[7.714,52.401],[7.688,52.454],[7.604,52.475],[7.564,52.432],[7.603,52.421],[7.571,52.381],[7.582,52.376],[7.505,52.361],[7.438,52.333],[7.427,52.314],[7.386,52.309],[7.298,52.264],[7.153,52.267],[7.039,52.228],[6.989,52.227],[6.951,52.181],[6.907,52.175],[6.855,52.12],[6.761,52.119],[6.745,52.093],[6.751,52.085],[6.695,52.07],[6.688,52.04],[6.753,52.029],[6.827,51.994],[6.833,51.972],[6.799,51.959],[6.789,51.93],[6.733,51.899],[6.684,51.918],[6.544,51.885],[6.473,51.854],[6.391,51.874],[6.388,51.862],[6.409,51.852],[6.402,51.827],[6.347,51.851],[6.307,51.849],[6.299,51.868],[6.28,51.874],[6.208,51.87],[6.185,51.882],[6.191,51.892],[6.155,51.905],[6.103,51.893],[6.137,51.886],[6.167,51.861],[6.166,51.841],[6.063,51.865],[6.002,51.832],[5.963,51.837],[5.947,51.813],[5.978,51.797],[5.975,51.785],[5.991,51.783],[5.982,51.774],[5.992,51.77],[5.953,51.741],[6.045,51.717],[6.026,51.709],[6.037,51.673],[6.118,51.656],[6.091,51.606],[6.157,51.567],[6.212,51.513],[6.223,51.469],[6.205,51.4],[6.226,51.4],[6.214,51.39],[6.226,51.361],[6.193,51.335],[6.169,51.333],[6.124,51.275],[6.073,51.243],[6.086,51.223],[6.068,51.221],[6.082,51.172],[6.165,51.194],[6.181,51.186],[6.139,51.173],[6.175,51.158],[6.092,51.135],[5.998,51.084],[5.958,51.035],[5.938,51.035],[5.913,51.067],[5.866,51.051],[5.879,51.018],[5.906,51.002],[5.897,50.975],[5.955,50.988],[6.026,50.983],[6.005,50.957],[6.018,50.934],[6.094,50.921],[6.075,50.893],[6.088,50.872],[6.074,50.847],[6.055,50.857],[6.019,50.846],[6.025,50.814],[6.003,50.801],[5.984,50.81],[5.975,50.798],[6.028,50.774],[6.018,50.763],[6.04,50.746],[6.039,50.718],[6.045,50.728],[6.115,50.722],[6.165,50.663],[6.196,50.663],[6.188,50.641],[6.232,50.65],[6.267,50.642],[6.274,50.628],[6.248,50.604],[6.237,50.566],[6.197,50.531],[6.227,50.494],[6.27,50.505],[6.351,50.488],[6.34,50.463],[6.372,50.456],[6.378,50.439],[6.37,50.409],[6.342,50.38],[6.398,50.346],[6.405,50.323],[6.425,50.323],[6.424,50.334],[6.408,50.339],[6.397,50.358],[6.406,50.364],[6.395,50.361],[6.385,50.384],[6.413,50.389],[6.421,50.369],[6.449,50.371],[6.461,50.359],[6.452,50.336],[6.485,50.339],[6.507,50.36],[6.603,50.388],[6.604,50.375],[6.627,50.372],[6.624,50.352],[6.65,50.348],[6.667,50.372],[6.699,50.336],[6.778,50.364],[6.801,50.362],[6.769,50.393],[6.785,50.421],[6.771,50.436],[6.746,50.436],[6.767,50.459],[6.745,50.473],[6.801,50.491],[6.812,50.472],[6.859,50.453],[6.901,50.469],[6.907,50.503],[6.889,50.507],[6.898,50.518],[6.882,50.527],[6.929,50.533],[6.922,50.554],[6.931,50.56],[6.998,50.565],[7.056,50.606],[7.087,50.586],[7.115,50.612],[7.148,50.6],[7.155,50.615],[7.19,50.624],[7.203,50.65],[7.213,50.623],[7.333,50.638],[7.359,50.649],[7.356,50.665],[7.372,50.682],[7.357,50.698],[7.374,50.718],[7.443,50.711],[7.552,50.746],[7.592,50.741],[7.601,50.766],[7.655,50.768],[7.659,50.785],[7.676,50.779],[7.682,50.795],[7.661,50.82],[7.699,50.825],[7.729,50.851],[7.762,50.845],[7.753,50.851],[7.766,50.857],[7.748,50.867],[7.76,50.9],[7.735,50.918],[7.793,50.942],[7.851,50.926],[7.829,50.882],[7.882,50.875],[7.906,50.848],[7.958,50.849],[7.978,50.833],[7.964,50.784],[8.04,50.726],[8.04,50.697],[8.099,50.704],[8.121,50.685],[8.143,50.695],[8.167,50.736],[8.126,50.788],[8.166,50.803],[8.27,50.882],[8.292,50.882],[8.305,50.861],[8.359,50.861],[8.433,50.918],[8.456,50.917],[8.449,50.941],[8.462,50.95],[8.46,50.967],[8.478,50.969],[8.539,51.019],[8.521,51.043],[8.505,51.041],[8.528,51.063],[8.503,51.075],[8.508,51.085],[8.551,51.103],[8.657,51.095],[8.72,51.11],[8.692,51.133],[8.758,51.177],[8.75,51.198],[8.768,51.209],[8.742,51.218],[8.728,51.25],[8.737,51.262],[8.722,51.274],[8.693,51.276],[8.609,51.247],[8.556,51.277],[8.621,51.337],[8.654,51.34],[8.694,51.377],[8.733,51.372],[8.804,51.391],[8.854,51.377],[8.89,51.393],[8.94,51.389],[8.948,51.428],[8.919,51.43],[8.922,51.446],[8.89,51.482],[9.018,51.518],[9.039,51.502],[9.092,51.494],[9.077,51.465],[9.094,51.445],[9.158,51.443],[9.185,51.466],[9.216,51.46],[9.225,51.49],[9.264,51.498],[9.282,51.514],[9.308,51.513],[9.317,51.552],[9.374,51.591],[9.337,51.615],[9.427,51.631],[9.445,51.644],[9.375,51.65],[9.402,51.702],[9.387,51.719],[9.394,51.732],[9.375,51.744],[9.448,51.795],[9.427,51.81],[9.442,51.829],[9.433,51.841],[9.46,51.863],[9.323,51.855],[9.336,51.856],[9.344,51.88],[9.341,51.908],[9.272,51.932],[9.277,51.944],[9.264,51.948],[9.286,51.957],[9.274,51.974],[9.217,51.974],[9.209,51.96],[9.176,51.98],[9.197,51.997],[9.179,52.003],[9.197,52.012],[9.172,52.047],[9.193,52.07],[9.156,52.098],[9.133,52.097],[9.159,52.12],[9.153,52.129],[9.063,52.148],[9.018,52.132],[9.022,52.172],[8.986,52.195],[9.045,52.184],[9.036,52.225],[9.076,52.233],[8.975,52.263],[8.979,52.275],[8.964,52.279],[8.988,52.288],[8.998,52.326],[9.027,52.346],[9.058,52.34],[9.085,52.356],[9.095,52.387],[9.125,52.412],[9.095,52.443],[9.137,52.476],[9.133,52.483],[9.053,52.5],[9.017,52.46],[8.978,52.451],[8.987,52.433],[8.941,52.416],[8.937,52.402],[8.746,52.388],[8.725,52.401],[8.707,52.395],[8.705,52.419],[8.718,52.429],[8.703,52.443],[8.703,52.5],[8.69,52.519],[8.67,52.519]]]]}},{"type":"Feature","id":"06","properties":{"level":"state","ags":"06","name":"Hessen","share":18.4,"pop":6280793,"foreign":1155666,"german":5125127},"geometry":{"type":"MultiPolygon","coordinates":[[[[8.681,49.622],[8.672,49.616],[8.686,49.618],[8.681,49.622]],[[8.68,49.62],[8.684,49.62],[8.68,49.619],[8.68,49.62]]],[[[9.495,51.646],[9.494,51.657],[9.44,51.65],[9.427,51.631],[9.337,51.615],[9.374,51.591],[9.317,51.552],[9.308,51.513],[9.282,51.514],[9.264,51.498],[9.225,51.49],[9.216,51.46],[9.185,51.466],[9.158,51.443],[9.094,51.445],[9.077,51.465],[9.092,51.494],[9.039,51.502],[9.018,51.518],[8.89,51.482],[8.922,51.446],[8.919,51.43],[8.948,51.428],[8.94,51.389],[8.89,51.393],[8.854,51.377],[8.804,51.391],[8.733,51.372],[8.694,51.377],[8.654,51.34],[8.638,51.344],[8.605,51.324],[8.556,51.277],[8.589,51.25],[8.722,51.274],[8.737,51.262],[8.728,51.25],[8.742,51.218],[8.768,51.209],[8.75,51.198],[8.758,51.177],[8.692,51.133],[8.72,51.11],[8.657,51.095],[8.528,51.097],[8.502,51.079],[8.528,51.063],[8.505,51.041],[8.521,51.043],[8.539,51.019],[8.478,50.969],[8.46,50.967],[8.462,50.95],[8.449,50.941],[8.456,50.917],[8.433,50.918],[8.359,50.861],[8.305,50.861],[8.292,50.882],[8.27,50.882],[8.166,50.803],[8.126,50.788],[8.167,50.736],[8.143,50.695],[8.131,50.697],[8.11,50.671],[8.11,50.657],[8.141,50.63],[8.126,50.61],[8.152,50.599],[8.138,50.551],[8.103,50.533],[8.046,50.557],[8.028,50.551],[7.979,50.495],[8.011,50.453],[7.975,50.438],[7.988,50.428],[7.964,50.412],[7.987,50.398],[8.024,50.401],[8.015,50.385],[8.06,50.375],[8.077,50.348],[8.072,50.332],[8.103,50.327],[8.122,50.277],[8.103,50.26],[8.036,50.271],[8.022,50.258],[8.059,50.234],[8.035,50.216],[8.012,50.218],[7.99,50.239],[7.883,50.181],[7.891,50.163],[7.933,50.144],[7.922,50.134],[7.93,50.104],[7.903,50.122],[7.885,50.114],[7.854,50.128],[7.83,50.098],[7.837,50.084],[7.803,50.085],[7.774,50.067],[7.78,50.051],[7.855,50.011],[7.866,49.98],[7.887,49.972],[7.967,49.978],[8.181,50.035],[8.265,50.016],[8.341,49.951],[8.355,49.913],[8.344,49.88],[8.384,49.856],[8.378,49.825],[8.416,49.774],[8.479,49.764],[8.436,49.721],[8.358,49.693],[8.386,49.622],[8.422,49.583],[8.476,49.584],[8.567,49.519],[8.608,49.528],[8.621,49.545],[8.603,49.593],[8.591,49.596],[8.594,49.611],[8.692,49.624],[8.679,49.614],[8.686,49.608],[8.672,49.611],[8.698,49.6],[8.681,49.576],[8.706,49.548],[8.703,49.535],[8.736,49.525],[8.728,49.518],[8.799,49.512],[8.822,49.525],[8.817,49.506],[8.834,49.491],[8.849,49.502],[8.9,49.504],[8.899,49.485],[8.876,49.467],[8.852,49.484],[8.826,49.469],[8.837,49.434],[8.807,49.419],[8.803,49.403],[8.815,49.397],[8.83,49.408],[8.853,49.396],[8.892,49.421],[8.901,49.443],[8.913,49.438],[8.95,49.455],[8.932,49.471],[8.943,49.486],[8.955,49.482],[8.952,49.506],[9.041,49.499],[9.065,49.53],[9.1,49.526],[9.106,49.51],[9.126,49.517],[9.114,49.535],[9.084,49.543],[9.073,49.575],[9.099,49.561],[9.103,49.579],[9.083,49.602],[9.066,49.602],[9.065,49.617],[9.102,49.642],[9.09,49.693],[9.126,49.7],[9.123,49.715],[9.151,49.743],[9.107,49.759],[9.134,49.782],[9.132,49.795],[9.091,49.791],[9.077,49.818],[9.085,49.848],[9.064,49.832],[9.053,49.84],[9.06,49.847],[9.038,49.843],[9.044,49.856],[9.033,49.866],[9.05,49.868],[9.023,49.91],[9.032,49.925],[9.016,49.989],[9.049,49.992],[9.036,50.002],[9.031,50.04],[8.976,50.047],[8.999,50.069],[9,50.095],[9.018,50.112],[9.117,50.127],[9.154,50.118],[9.149,50.091],[9.192,50.127],[9.183,50.138],[9.222,50.149],[9.374,50.131],[9.413,50.084],[9.512,50.094],[9.519,50.114],[9.508,50.146],[9.531,50.161],[9.498,50.176],[9.516,50.2],[9.495,50.227],[9.501,50.243],[9.542,50.224],[9.576,50.232],[9.583,50.222],[9.664,50.234],[9.637,50.251],[9.652,50.27],[9.703,50.281],[9.746,50.31],[9.747,50.341],[9.733,50.356],[9.746,50.366],[9.762,50.426],[9.883,50.399],[9.958,50.423],[10.018,50.466],[10.041,50.495],[10.04,50.533],[10.062,50.557],[10.046,50.571],[10.049,50.599],[10.037,50.613],[10.058,50.626],[10.081,50.62],[10.07,50.656],[10.049,50.674],[10.002,50.677],[9.949,50.664],[9.969,50.641],[9.961,50.629],[9.877,50.639],[9.881,50.673],[9.924,50.695],[9.909,50.705],[9.941,50.742],[9.94,50.756],[9.92,50.76],[9.928,50.777],[9.952,50.773],[9.944,50.798],[9.957,50.81],[9.952,50.821],[9.977,50.833],[9.998,50.827],[10.007,50.838],[10.023,50.832],[10.039,50.853],[10.022,50.848],[10.022,50.864],[10.06,50.885],[10.016,50.921],[9.971,50.907],[9.992,50.935],[9.957,50.923],[9.95,50.942],[10.014,50.935],[10.062,50.944],[10.043,50.948],[10.032,50.96],[10.041,50.968],[10.019,50.981],[10.036,51.012],[10.103,51.003],[10.121,51.012],[10.135,50.996],[10.178,50.996],[10.203,51.008],[10.195,51.021],[10.215,51.026],[10.185,51.049],[10.141,51.058],[10.155,51.07],[10.145,51.085],[10.175,51.117],[10.118,51.14],[10.168,51.153],[10.2,51.113],[10.211,51.123],[10.2,51.15],[10.207,51.165],[10.236,51.187],[10.197,51.192],[10.168,51.212],[10.15,51.206],[10.138,51.22],[10.072,51.225],[10.079,51.243],[10.047,51.253],[10.06,51.276],[9.973,51.284],[9.97,51.3],[9.94,51.307],[9.948,51.326],[9.93,51.34],[9.923,51.368],[9.931,51.393],[9.907,51.408],[9.906,51.421],[9.878,51.404],[9.851,51.414],[9.865,51.372],[9.84,51.384],[9.841,51.403],[9.804,51.41],[9.793,51.402],[9.801,51.387],[9.702,51.365],[9.738,51.319],[9.772,51.336],[9.768,51.307],[9.732,51.295],[9.669,51.318],[9.629,51.312],[9.633,51.326],[9.604,51.326],[9.56,51.347],[9.548,51.359],[9.577,51.369],[9.559,51.379],[9.579,51.401],[9.631,51.406],[9.644,51.418],[9.628,51.444],[9.644,51.469],[9.586,51.519],[9.619,51.53],[9.609,51.557],[9.648,51.553],[9.627,51.582],[9.684,51.567],[9.691,51.576],[9.638,51.609],[9.626,51.637],[9.571,51.625],[9.544,51.64],[9.515,51.626],[9.492,51.635],[9.495,51.646]]]]}},{"type":"Feature","id":"07","properties":{"level":"state","ags":"07","name":"Rheinland-Pfalz","share":13.9,"pop":4129569,"foreign":574010,"german":3555559},"geometry":{"type":"Polygon","coordinates":[[[7.809,50.939],[7.735,50.918],[7.76,50.9],[7.748,50.867],[7.766,50.857],[7.753,50.851],[7.762,50.845],[7.729,50.851],[7.699,50.825],[7.661,50.82],[7.682,50.795],[7.676,50.779],[7.659,50.785],[7.655,50.768],[7.601,50.766],[7.592,50.741],[7.552,50.746],[7.443,50.711],[7.374,50.718],[7.357,50.698],[7.372,50.682],[7.356,50.665],[7.359,50.649],[7.333,50.638],[7.213,50.623],[7.203,50.65],[7.19,50.624],[7.155,50.615],[7.148,50.6],[7.115,50.612],[7.087,50.586],[7.056,50.606],[6.998,50.565],[6.931,50.56],[6.922,50.554],[6.929,50.533],[6.882,50.527],[6.898,50.518],[6.889,50.507],[6.907,50.503],[6.901,50.469],[6.859,50.453],[6.812,50.472],[6.801,50.491],[6.745,50.473],[6.767,50.459],[6.746,50.436],[6.771,50.436],[6.785,50.421],[6.769,50.393],[6.803,50.369],[6.796,50.36],[6.778,50.364],[6.699,50.336],[6.667,50.372],[6.636,50.345],[6.622,50.354],[6.625,50.375],[6.604,50.375],[6.603,50.388],[6.507,50.36],[6.485,50.339],[6.452,50.336],[6.461,50.359],[6.449,50.371],[6.43,50.363],[6.413,50.389],[6.385,50.384],[6.425,50.323],[6.383,50.322],[6.359,50.313],[6.363,50.305],[6.333,50.323],[6.306,50.32],[6.278,50.266],[6.216,50.257],[6.176,50.235],[6.166,50.22],[6.189,50.205],[6.193,50.182],[6.14,50.169],[6.148,50.161],[6.132,50.154],[6.155,50.142],[6.13,50.122],[6.133,50.093],[6.12,50.092],[6.116,50.074],[6.129,50.074],[6.112,50.06],[6.124,50.06],[6.13,50.03],[6.146,50.023],[6.13,50.019],[6.15,50.009],[6.138,49.998],[6.172,49.985],[6.165,49.971],[6.178,49.954],[6.191,49.969],[6.198,49.948],[6.224,49.95],[6.218,49.924],[6.232,49.919],[6.234,49.9],[6.297,49.866],[6.311,49.87],[6.323,49.838],[6.364,49.851],[6.429,49.811],[6.471,49.823],[6.511,49.802],[6.529,49.809],[6.506,49.79],[6.519,49.762],[6.5,49.752],[6.502,49.733],[6.517,49.724],[6.496,49.726],[6.507,49.713],[6.428,49.667],[6.441,49.656],[6.421,49.62],[6.375,49.592],[6.381,49.577],[6.358,49.574],[6.38,49.551],[6.468,49.544],[6.517,49.528],[6.564,49.541],[6.58,49.522],[6.605,49.517],[6.653,49.551],[6.684,49.548],[6.69,49.535],[6.709,49.553],[6.748,49.558],[6.813,49.592],[6.835,49.583],[6.866,49.609],[6.88,49.601],[6.891,49.616],[6.93,49.612],[6.941,49.635],[6.951,49.625],[6.992,49.635],[6.986,49.621],[7.028,49.639],[7.059,49.63],[7.088,49.6],[7.174,49.599],[7.173,49.585],[7.21,49.577],[7.213,49.566],[7.269,49.584],[7.262,49.574],[7.276,49.537],[7.31,49.523],[7.286,49.517],[7.278,49.484],[7.305,49.472],[7.246,49.446],[7.25,49.435],[7.289,49.416],[7.299,49.399],[7.292,49.389],[7.356,49.38],[7.369,49.374],[7.366,49.363],[7.402,49.368],[7.39,49.35],[7.401,49.338],[7.378,49.32],[7.394,49.316],[7.381,49.307],[7.385,49.294],[7.365,49.278],[7.334,49.278],[7.344,49.27],[7.325,49.248],[7.307,49.256],[7.289,49.238],[7.304,49.222],[7.296,49.205],[7.338,49.184],[7.35,49.163],[7.446,49.184],[7.433,49.165],[7.494,49.169],[7.506,49.151],[7.49,49.136],[7.529,49.097],[7.564,49.08],[7.629,49.074],[7.631,49.055],[7.673,49.045],[7.696,49.058],[7.761,49.046],[7.794,49.066],[7.867,49.033],[7.889,49.049],[7.917,49.041],[7.933,49.058],[7.975,49.027],[8.049,49.014],[8.088,48.99],[8.233,48.967],[8.286,48.997],[8.312,49.054],[8.358,49.098],[8.368,49.168],[8.405,49.221],[8.385,49.22],[8.391,49.236],[8.489,49.293],[8.45,49.323],[8.497,49.364],[8.5,49.389],[8.473,49.373],[8.464,49.384],[8.496,49.402],[8.508,49.436],[8.443,49.45],[8.464,49.47],[8.415,49.554],[8.423,49.582],[8.383,49.625],[8.356,49.68],[8.363,49.699],[8.436,49.721],[8.48,49.762],[8.416,49.774],[8.378,49.825],[8.384,49.856],[8.344,49.88],[8.355,49.916],[8.338,49.956],[8.245,50.028],[8.181,50.035],[7.967,49.978],[7.887,49.972],[7.866,49.98],[7.851,50.014],[7.773,50.057],[7.803,50.085],[7.837,50.084],[7.83,50.098],[7.854,50.128],[7.885,50.114],[7.903,50.122],[7.93,50.104],[7.922,50.134],[7.933,50.144],[7.884,50.17],[7.883,50.181],[7.911,50.204],[7.947,50.21],[7.99,50.239],[8.012,50.218],[8.035,50.216],[8.059,50.234],[8.022,50.258],[8.036,50.271],[8.103,50.26],[8.122,50.277],[8.103,50.327],[8.072,50.332],[8.077,50.348],[8.06,50.375],[8.015,50.385],[8.024,50.401],[7.987,50.398],[7.964,50.412],[7.988,50.428],[7.975,50.438],[8.011,50.453],[7.979,50.485],[7.993,50.522],[8.042,50.557],[8.071,50.538],[8.118,50.535],[8.111,50.544],[8.138,50.551],[8.152,50.594],[8.126,50.61],[8.141,50.63],[8.11,50.657],[8.126,50.686],[8.099,50.704],[8.04,50.697],[8.04,50.726],[7.964,50.784],[7.978,50.833],[7.958,50.849],[7.906,50.848],[7.882,50.875],[7.829,50.882],[7.851,50.926],[7.809,50.939]]]}},{"type":"Feature","id":"08","properties":{"level":"state","ags":"08","name":"Baden-Württemberg","share":18.2,"pop":11245898,"foreign":2046753,"german":9199145},"geometry":{"type":"MultiPolygon","coordinates":[[[[8.682,49.619],[8.684,49.62],[8.68,49.62],[8.682,49.619]]],[[[9.126,47.669],[9.121,47.676],[9.121,47.672],[9.126,47.669]]],[[[9.201,47.706],[9.188,47.706],[9.199,47.702],[9.201,47.706]]],[[[8.701,47.715],[8.665,47.713],[8.676,47.698],[8.659,47.691],[8.718,47.691],[8.701,47.715]]],[[[9.65,49.785],[9.563,49.781],[9.563,49.745],[9.546,49.766],[9.515,49.764],[9.501,49.789],[9.458,49.77],[9.425,49.79],[9.392,49.77],[9.373,49.779],[9.316,49.768],[9.323,49.744],[9.296,49.739],[9.374,49.728],[9.344,49.719],[9.357,49.704],[9.383,49.707],[9.386,49.731],[9.419,49.712],[9.42,49.69],[9.398,49.671],[9.416,49.654],[9.384,49.643],[9.367,49.658],[9.344,49.644],[9.304,49.655],[9.271,49.634],[9.285,49.615],[9.239,49.581],[9.108,49.579],[9.099,49.561],[9.073,49.575],[9.084,49.543],[9.114,49.535],[9.126,49.517],[9.106,49.51],[9.1,49.526],[9.065,49.53],[9.041,49.499],[8.952,49.506],[8.955,49.482],[8.943,49.486],[8.932,49.471],[8.95,49.455],[8.913,49.438],[8.901,49.443],[8.892,49.421],[8.852,49.396],[8.831,49.408],[8.822,49.396],[8.803,49.403],[8.807,49.419],[8.836,49.43],[8.826,49.469],[8.852,49.484],[8.876,49.467],[8.899,49.485],[8.9,49.504],[8.849,49.502],[8.834,49.491],[8.817,49.506],[8.822,49.525],[8.799,49.512],[8.728,49.518],[8.736,49.525],[8.703,49.535],[8.706,49.548],[8.681,49.576],[8.698,49.6],[8.672,49.611],[8.686,49.608],[8.679,49.614],[8.692,49.624],[8.594,49.611],[8.591,49.596],[8.603,49.593],[8.621,49.545],[8.581,49.52],[8.542,49.529],[8.464,49.59],[8.422,49.583],[8.415,49.554],[8.464,49.47],[8.443,49.45],[8.508,49.434],[8.496,49.402],[8.464,49.384],[8.473,49.373],[8.5,49.389],[8.497,49.364],[8.45,49.323],[8.488,49.292],[8.389,49.234],[8.385,49.22],[8.405,49.221],[8.368,49.168],[8.358,49.098],[8.312,49.054],[8.286,48.997],[8.194,48.954],[8.135,48.888],[8.087,48.802],[8.03,48.787],[8.014,48.761],[7.972,48.758],[7.963,48.722],[7.89,48.663],[7.84,48.641],[7.8,48.584],[7.804,48.511],[7.768,48.49],[7.765,48.457],[7.733,48.397],[7.745,48.328],[7.694,48.302],[7.666,48.22],[7.578,48.121],[7.569,48.035],[7.622,47.973],[7.582,47.93],[7.58,47.895],[7.556,47.878],[7.563,47.843],[7.53,47.781],[7.548,47.73],[7.512,47.696],[7.521,47.664],[7.567,47.632],[7.591,47.604],[7.589,47.59],[7.619,47.577],[7.646,47.597],[7.694,47.601],[7.672,47.587],[7.686,47.566],[7.634,47.561],[7.693,47.532],[7.796,47.557],[7.823,47.588],[7.891,47.588],[7.911,47.571],[7.911,47.551],[7.943,47.544],[7.959,47.558],[8.09,47.558],[8.109,47.582],[8.165,47.594],[8.204,47.621],[8.227,47.605],[8.288,47.611],[8.324,47.573],[8.383,47.566],[8.397,47.577],[8.434,47.567],[8.495,47.581],[8.467,47.584],[8.457,47.602],[8.508,47.618],[8.518,47.634],[8.558,47.624],[8.574,47.612],[8.563,47.6],[8.583,47.596],[8.605,47.613],[8.596,47.643],[8.608,47.652],[8.614,47.644],[8.603,47.639],[8.616,47.638],[8.629,47.65],[8.607,47.672],[8.533,47.663],[8.532,47.646],[8.474,47.65],[8.473,47.638],[8.465,47.657],[8.445,47.654],[8.406,47.675],[8.421,47.684],[8.404,47.698],[8.455,47.722],[8.45,47.739],[8.474,47.765],[8.577,47.782],[8.562,47.793],[8.568,47.808],[8.619,47.798],[8.628,47.759],[8.653,47.773],[8.646,47.79],[8.657,47.8],[8.681,47.787],[8.689,47.758],[8.727,47.762],[8.741,47.748],[8.711,47.73],[8.736,47.716],[8.728,47.693],[8.796,47.675],[8.81,47.693],[8.769,47.707],[8.77,47.718],[8.806,47.738],[8.805,47.724],[8.826,47.718],[8.819,47.713],[8.873,47.704],[8.874,47.694],[8.852,47.698],[8.851,47.681],[8.894,47.652],[8.999,47.687],[8.999,47.703],[8.94,47.728],[8.961,47.737],[9.015,47.72],[8.99,47.743],[9.093,47.706],[9.109,47.69],[9.041,47.708],[9.054,47.69],[9.112,47.686],[9.128,47.667],[9.176,47.654],[9.178,47.667],[9.218,47.666],[9.18,47.705],[9.173,47.735],[9.031,47.806],[9.039,47.817],[9.062,47.815],[9.139,47.769],[9.224,47.741],[9.239,47.71],[9.31,47.674],[9.35,47.661],[9.406,47.668],[9.463,47.648],[9.495,47.65],[9.53,47.603],[9.56,47.585],[9.614,47.581],[9.644,47.59],[9.636,47.602],[9.658,47.612],[9.706,47.602],[9.746,47.617],[9.748,47.604],[9.842,47.678],[9.96,47.652],[10.029,47.687],[10.03,47.674],[10.06,47.68],[10.077,47.639],[10.089,47.673],[10.111,47.666],[10.129,47.676],[10.139,47.703],[10.116,47.719],[10.119,47.76],[10.065,47.786],[10.09,47.804],[10.138,47.81],[10.103,47.842],[10.107,47.853],[10.092,47.846],[10.105,47.865],[10.083,47.856],[10.077,47.868],[10.106,47.879],[10.095,47.885],[10.111,47.935],[10.085,47.961],[10.115,47.976],[10.134,48.018],[10.127,48.033],[10.144,48.059],[10.14,48.099],[10.107,48.132],[10.084,48.21],[10.061,48.24],[10.066,48.282],[9.998,48.348],[10,48.363],[9.967,48.374],[10.042,48.43],[10.028,48.437],[10.034,48.458],[10.064,48.456],[10.105,48.478],[10.134,48.455],[10.172,48.458],[10.18,48.476],[10.241,48.492],[10.231,48.511],[10.312,48.523],[10.301,48.545],[10.313,48.567],[10.293,48.59],[10.297,48.604],[10.323,48.609],[10.26,48.655],[10.267,48.659],[10.255,48.666],[10.265,48.672],[10.255,48.677],[10.273,48.686],[10.269,48.704],[10.318,48.683],[10.337,48.689],[10.361,48.653],[10.389,48.667],[10.392,48.687],[10.409,48.699],[10.437,48.693],[10.423,48.691],[10.426,48.673],[10.411,48.661],[10.495,48.687],[10.472,48.703],[10.483,48.708],[10.456,48.729],[10.464,48.735],[10.448,48.728],[10.416,48.748],[10.428,48.756],[10.413,48.772],[10.434,48.776],[10.421,48.799],[10.449,48.812],[10.449,48.83],[10.427,48.843],[10.454,48.86],[10.45,48.893],[10.421,48.906],[10.457,48.921],[10.419,48.969],[10.404,48.967],[10.412,48.979],[10.352,49.006],[10.35,49.028],[10.32,49.026],[10.294,49.043],[10.252,49.039],[10.265,49.061],[10.234,49.076],[10.251,49.093],[10.205,49.098],[10.225,49.12],[10.257,49.129],[10.248,49.149],[10.218,49.163],[10.197,49.156],[10.181,49.182],[10.125,49.2],[10.126,49.211],[10.14,49.209],[10.12,49.247],[10.133,49.253],[10.11,49.258],[10.124,49.275],[10.134,49.262],[10.157,49.281],[10.132,49.3],[10.143,49.323],[10.105,49.338],[10.108,49.352],[10.125,49.356],[10.107,49.379],[10.162,49.395],[10.139,49.403],[10.152,49.401],[10.152,49.412],[10.134,49.437],[10.095,49.448],[10.122,49.464],[10.1,49.492],[10.121,49.511],[10.084,49.512],[10.086,49.542],[10.061,49.545],[10.04,49.529],[10.056,49.515],[10.028,49.504],[10.019,49.486],[9.927,49.485],[9.914,49.493],[9.925,49.509],[9.917,49.518],[9.925,49.56],[9.898,49.562],[9.912,49.586],[9.876,49.579],[9.859,49.546],[9.81,49.557],[9.848,49.577],[9.841,49.595],[9.873,49.61],[9.855,49.642],[9.835,49.646],[9.822,49.665],[9.841,49.682],[9.832,49.704],[9.794,49.731],[9.729,49.688],[9.71,49.727],[9.677,49.716],[9.676,49.693],[9.632,49.693],[9.625,49.704],[9.641,49.723],[9.628,49.732],[9.646,49.736],[9.638,49.754],[9.652,49.766],[9.65,49.785]],[[8.676,49.616],[8.675,49.621],[8.686,49.622],[8.676,49.616]]]]}},{"type":"Feature","id":"09","properties":{"level":"state","ags":"09","name":"Bayern","share":15.6,"pop":13248928,"foreign":2066833,"german":11182095},"geometry":{"type":"Polygon","coordinates":[[[10.454,47.556],[10.489,47.54],[10.569,47.534],[10.598,47.57],[10.691,47.558],[10.695,47.545],[10.758,47.535],[10.778,47.514],[10.89,47.537],[10.918,47.514],[10.87,47.499],[10.87,47.483],[10.937,47.481],[10.928,47.472],[10.984,47.43],[10.97,47.4],[11.115,47.396],[11.129,47.413],[11.207,47.434],[11.253,47.428],[11.225,47.395],[11.273,47.398],[11.29,47.407],[11.291,47.427],[11.338,47.45],[11.421,47.445],[11.409,47.467],[11.384,47.472],[11.437,47.516],[11.506,47.505],[11.572,47.515],[11.588,47.525],[11.587,47.555],[11.606,47.581],[11.634,47.581],[11.637,47.594],[11.66,47.584],[11.781,47.591],[11.844,47.581],[11.855,47.602],[12.009,47.625],[12.022,47.611],[12.064,47.619],[12.129,47.606],[12.179,47.614],[12.178,47.601],[12.204,47.607],[12.199,47.641],[12.163,47.701],[12.204,47.707],[12.257,47.743],[12.265,47.732],[12.241,47.694],[12.255,47.679],[12.338,47.697],[12.364,47.684],[12.44,47.695],[12.441,47.674],[12.499,47.625],[12.575,47.632],[12.607,47.674],[12.696,47.682],[12.733,47.679],[12.757,47.663],[12.781,47.674],[12.759,47.651],[12.825,47.612],[12.794,47.601],[12.779,47.579],[12.794,47.557],[12.848,47.546],[12.852,47.531],[12.909,47.497],[12.969,47.474],[12.978,47.485],[13.006,47.464],[13.048,47.492],[13.047,47.521],[13.031,47.533],[13.057,47.562],[13.044,47.583],[13.072,47.588],[13.063,47.602],[13.099,47.635],[13.077,47.669],[13.081,47.687],[13.018,47.723],[12.974,47.707],[12.925,47.71],[12.905,47.724],[12.945,47.765],[12.928,47.771],[13.003,47.85],[12.938,47.944],[12.923,47.939],[12.918,47.955],[12.873,47.964],[12.851,48.015],[12.76,48.075],[12.749,48.108],[12.758,48.126],[12.787,48.124],[12.799,48.146],[12.848,48.167],[12.869,48.201],[12.957,48.21],[13.022,48.258],[13.179,48.295],[13.255,48.293],[13.331,48.324],[13.412,48.376],[13.439,48.43],[13.427,48.458],[13.458,48.512],[13.438,48.558],[13.475,48.556],[13.504,48.572],[13.509,48.591],[13.57,48.561],[13.599,48.569],[13.727,48.513],[13.748,48.53],[13.754,48.564],[13.77,48.554],[13.801,48.574],[13.801,48.598],[13.826,48.618],[13.814,48.692],[13.838,48.701],[13.795,48.715],[13.819,48.732],[13.821,48.754],[13.84,48.772],[13.804,48.781],[13.815,48.797],[13.793,48.83],[13.765,48.834],[13.738,48.886],[13.676,48.879],[13.655,48.893],[13.622,48.939],[13.629,48.949],[13.609,48.94],[13.585,48.969],[13.529,48.974],[13.507,48.969],[13.508,48.942],[13.496,48.941],[13.403,48.987],[13.397,49.051],[13.289,49.119],[13.236,49.114],[13.183,49.134],[13.17,49.144],[13.171,49.174],[13.11,49.203],[13.114,49.218],[13.086,49.229],[13.081,49.247],[13.034,49.264],[13.029,49.304],[12.943,49.344],[12.88,49.351],[12.887,49.332],[12.786,49.345],[12.758,49.375],[12.758,49.395],[12.709,49.425],[12.656,49.435],[12.649,49.467],[12.634,49.476],[12.644,49.485],[12.644,49.523],[12.589,49.539],[12.561,49.62],[12.528,49.618],[12.534,49.626],[12.518,49.645],[12.53,49.666],[12.522,49.687],[12.443,49.704],[12.401,49.754],[12.473,49.786],[12.464,49.81],[12.473,49.834],[12.498,49.838],[12.498,49.857],[12.55,49.901],[12.548,49.92],[12.476,49.938],[12.47,49.949],[12.5,49.972],[12.467,49.993],[12.432,49.984],[12.431,50.003],[12.368,50.017],[12.339,50.04],[12.325,50.033],[12.317,50.053],[12.261,50.058],[12.275,50.076],[12.2,50.111],[12.195,50.143],[12.216,50.168],[12.189,50.196],[12.197,50.199],[12.159,50.211],[12.151,50.236],[12.127,50.232],[12.091,50.252],[12.14,50.278],[12.122,50.292],[12.126,50.308],[12.091,50.333],[12.047,50.325],[12.015,50.348],[11.977,50.351],[11.984,50.389],[11.949,50.395],[11.954,50.407],[11.935,50.424],[11.824,50.39],[11.825,50.404],[11.78,50.419],[11.751,50.414],[11.762,50.405],[11.625,50.387],[11.573,50.4],[11.56,50.384],[11.52,50.374],[11.519,50.396],[11.479,50.401],[11.482,50.432],[11.443,50.421],[11.451,50.431],[11.421,50.443],[11.419,50.493],[11.441,50.5],[11.429,50.512],[11.347,50.522],[11.347,50.512],[11.321,50.509],[11.323,50.491],[11.291,50.475],[11.289,50.486],[11.247,50.477],[11.247,50.449],[11.268,50.432],[11.258,50.4],[11.284,50.36],[11.262,50.352],[11.277,50.336],[11.261,50.338],[11.256,50.322],[11.27,50.307],[11.252,50.299],[11.26,50.287],[11.252,50.269],[11.198,50.292],[11.187,50.27],[11.174,50.271],[11.184,50.281],[11.146,50.285],[11.132,50.308],[11.159,50.33],[11.139,50.354],[11.117,50.349],[11.115,50.367],[11.043,50.345],[11.033,50.361],[10.993,50.365],[11,50.352],[10.986,50.347],[10.938,50.392],[10.893,50.38],[10.876,50.397],[10.83,50.393],[10.804,50.379],[10.786,50.385],[10.755,50.358],[10.715,50.364],[10.714,50.346],[10.729,50.348],[10.714,50.325],[10.771,50.293],[10.803,50.292],[10.804,50.28],[10.846,50.275],[10.852,50.252],[10.824,50.238],[10.801,50.251],[10.77,50.241],[10.732,50.252],[10.731,50.213],[10.717,50.205],[10.687,50.226],[10.612,50.224],[10.597,50.246],[10.611,50.249],[10.598,50.263],[10.607,50.271],[10.591,50.272],[10.605,50.294],[10.592,50.308],[10.601,50.334],[10.562,50.337],[10.544,50.365],[10.515,50.35],[10.512,50.36],[10.492,50.355],[10.494,50.369],[10.464,50.376],[10.45,50.403],[10.394,50.394],[10.384,50.409],[10.404,50.425],[10.371,50.432],[10.381,50.439],[10.336,50.466],[10.341,50.483],[10.331,50.494],[10.231,50.512],[10.232,50.531],[10.204,50.555],[10.14,50.543],[10.126,50.561],[10.107,50.564],[10.072,50.528],[10.04,50.516],[10.033,50.481],[9.958,50.423],[9.883,50.399],[9.87,50.409],[9.86,50.397],[9.808,50.412],[9.803,50.424],[9.762,50.426],[9.746,50.366],[9.733,50.356],[9.747,50.341],[9.746,50.31],[9.703,50.281],[9.652,50.27],[9.637,50.251],[9.664,50.234],[9.583,50.222],[9.576,50.232],[9.542,50.224],[9.501,50.243],[9.495,50.227],[9.516,50.2],[9.498,50.176],[9.531,50.161],[9.508,50.146],[9.519,50.114],[9.512,50.094],[9.413,50.084],[9.374,50.131],[9.222,50.149],[9.183,50.138],[9.192,50.127],[9.149,50.091],[9.154,50.118],[9.12,50.126],[9.018,50.112],[8.976,50.049],[9.031,50.04],[9.036,50.002],[9.048,49.994],[9.016,49.989],[9.032,49.925],[9.023,49.91],[9.05,49.868],[9.033,49.866],[9.044,49.856],[9.038,49.843],[9.06,49.847],[9.053,49.84],[9.064,49.832],[9.085,49.848],[9.077,49.818],[9.091,49.791],[9.132,49.795],[9.134,49.782],[9.107,49.759],[9.151,49.743],[9.123,49.715],[9.126,49.7],[9.09,49.693],[9.102,49.642],[9.066,49.62],[9.066,49.602],[9.118,49.574],[9.194,49.574],[9.249,49.585],[9.285,49.615],[9.271,49.634],[9.304,49.655],[9.344,49.644],[9.367,49.658],[9.382,49.643],[9.406,49.645],[9.419,49.659],[9.398,49.671],[9.422,49.696],[9.4,49.729],[9.38,49.726],[9.383,49.707],[9.357,49.704],[9.344,49.719],[9.374,49.728],[9.296,49.741],[9.323,49.744],[9.316,49.768],[9.373,49.779],[9.392,49.77],[9.423,49.789],[9.457,49.769],[9.503,49.788],[9.515,49.764],[9.546,49.766],[9.562,49.745],[9.562,49.781],[9.649,49.791],[9.652,49.766],[9.638,49.754],[9.647,49.739],[9.628,49.732],[9.641,49.72],[9.625,49.704],[9.653,49.687],[9.676,49.693],[9.677,49.716],[9.71,49.727],[9.728,49.689],[9.739,49.688],[9.753,49.71],[9.8,49.731],[9.797,49.721],[9.832,49.704],[9.83,49.688],[9.841,49.683],[9.823,49.673],[9.83,49.652],[9.855,49.642],[9.873,49.61],[9.841,49.595],[9.848,49.578],[9.812,49.556],[9.859,49.546],[9.876,49.579],[9.912,49.586],[9.898,49.564],[9.925,49.56],[9.917,49.518],[9.925,49.509],[9.914,49.493],[9.952,49.48],[10.02,49.487],[10.028,49.504],[10.056,49.515],[10.04,49.529],[10.061,49.545],[10.086,49.542],[10.084,49.512],[10.121,49.511],[10.1,49.492],[10.122,49.464],[10.095,49.448],[10.134,49.437],[10.152,49.412],[10.152,49.401],[10.139,49.403],[10.162,49.395],[10.107,49.379],[10.125,49.356],[10.108,49.352],[10.105,49.338],[10.143,49.323],[10.132,49.3],[10.157,49.281],[10.134,49.262],[10.124,49.275],[10.11,49.258],[10.133,49.253],[10.12,49.247],[10.14,49.209],[10.126,49.211],[10.125,49.2],[10.181,49.182],[10.197,49.156],[10.218,49.163],[10.248,49.149],[10.257,49.129],[10.225,49.12],[10.205,49.098],[10.251,49.093],[10.234,49.076],[10.265,49.061],[10.252,49.039],[10.294,49.043],[10.32,49.026],[10.35,49.028],[10.352,49.006],[10.412,48.979],[10.404,48.967],[10.419,48.969],[10.457,48.921],[10.421,48.906],[10.45,48.893],[10.454,48.86],[10.427,48.843],[10.449,48.83],[10.449,48.812],[10.421,48.799],[10.434,48.776],[10.413,48.772],[10.428,48.756],[10.416,48.748],[10.448,48.728],[10.464,48.735],[10.456,48.729],[10.483,48.708],[10.472,48.703],[10.495,48.687],[10.411,48.661],[10.426,48.673],[10.423,48.691],[10.437,48.693],[10.409,48.699],[10.392,48.687],[10.389,48.667],[10.361,48.653],[10.337,48.689],[10.318,48.683],[10.269,48.704],[10.273,48.686],[10.255,48.677],[10.265,48.672],[10.255,48.666],[10.267,48.659],[10.26,48.655],[10.323,48.609],[10.297,48.604],[10.293,48.59],[10.313,48.567],[10.301,48.545],[10.312,48.523],[10.231,48.511],[10.241,48.492],[10.18,48.476],[10.172,48.458],[10.134,48.455],[10.105,48.478],[10.064,48.456],[10.034,48.458],[10.028,48.437],[10.042,48.43],[9.967,48.374],[10,48.363],[9.998,48.348],[10.066,48.282],[10.061,48.24],[10.084,48.21],[10.107,48.132],[10.14,48.099],[10.144,48.059],[10.127,48.033],[10.134,48.018],[10.115,47.976],[10.085,47.961],[10.111,47.935],[10.095,47.885],[10.106,47.879],[10.077,47.868],[10.083,47.856],[10.105,47.865],[10.092,47.846],[10.107,47.853],[10.103,47.842],[10.138,47.81],[10.09,47.804],[10.065,47.786],[10.119,47.76],[10.116,47.719],[10.139,47.703],[10.13,47.677],[10.111,47.666],[10.089,47.673],[10.077,47.639],[10.06,47.68],[10.03,47.674],[10.029,47.687],[9.96,47.652],[9.842,47.678],[9.748,47.604],[9.746,47.617],[9.706,47.602],[9.658,47.612],[9.636,47.602],[9.643,47.59],[9.602,47.584],[9.606,47.574],[9.679,47.557],[9.681,47.542],[9.713,47.551],[9.733,47.534],[9.765,47.589],[9.802,47.596],[9.827,47.58],[9.816,47.548],[9.874,47.529],[9.881,47.548],[9.922,47.53],[9.964,47.535],[9.959,47.543],[9.971,47.546],[9.965,47.521],[9.996,47.503],[9.995,47.486],[10.045,47.488],[10.07,47.456],[10.091,47.459],[10.105,47.429],[10.069,47.41],[10.086,47.399],[10.1,47.355],[10.119,47.376],[10.166,47.369],[10.182,47.392],[10.236,47.382],[10.199,47.327],[10.216,47.311],[10.179,47.296],[10.178,47.27],[10.232,47.27],[10.33,47.305],[10.395,47.376],[10.436,47.381],[10.436,47.411],[10.476,47.432],[10.468,47.477],[10.443,47.485],[10.431,47.504],[10.454,47.556]],[[10.456,47.556],[10.433,47.581],[10.482,47.585],[10.456,47.556]]]}},{"type":"Feature","id":"10","properties":{"level":"state","ags":"10","name":"Saarland","share":15.1,"pop":1012141,"foreign":152833,"german":859308},"geometry":{"type":"Polygon","coordinates":[[[7.059,49.63],[7.028,49.639],[6.986,49.621],[6.992,49.635],[6.951,49.625],[6.941,49.635],[6.93,49.612],[6.891,49.616],[6.88,49.601],[6.866,49.609],[6.835,49.583],[6.813,49.592],[6.748,49.558],[6.709,49.553],[6.69,49.535],[6.684,49.548],[6.653,49.551],[6.605,49.517],[6.58,49.522],[6.564,49.541],[6.517,49.528],[6.468,49.544],[6.38,49.551],[6.357,49.531],[6.367,49.47],[6.393,49.464],[6.429,49.476],[6.551,49.425],[6.557,49.42],[6.539,49.412],[6.541,49.401],[6.587,49.385],[6.583,49.368],[6.602,49.367],[6.588,49.35],[6.574,49.359],[6.566,49.348],[6.591,49.336],[6.589,49.322],[6.615,49.301],[6.67,49.28],[6.661,49.258],[6.69,49.25],[6.696,49.215],[6.723,49.219],[6.731,49.206],[6.711,49.188],[6.739,49.164],[6.783,49.168],[6.834,49.151],[6.848,49.157],[6.844,49.173],[6.862,49.179],[6.838,49.213],[6.859,49.223],[6.893,49.209],[6.925,49.223],[7.011,49.188],[7.035,49.191],[7.028,49.17],[7.055,49.112],[7.089,49.13],[7.082,49.152],[7.101,49.156],[7.113,49.152],[7.104,49.138],[7.126,49.142],[7.159,49.12],[7.185,49.131],[7.198,49.115],[7.245,49.13],[7.293,49.115],[7.321,49.141],[7.363,49.143],[7.369,49.161],[7.35,49.163],[7.338,49.184],[7.296,49.205],[7.304,49.222],[7.289,49.238],[7.307,49.256],[7.325,49.248],[7.344,49.27],[7.334,49.278],[7.365,49.278],[7.385,49.294],[7.381,49.307],[7.394,49.316],[7.378,49.32],[7.401,49.338],[7.39,49.35],[7.403,49.356],[7.393,49.363],[7.401,49.371],[7.366,49.363],[7.369,49.374],[7.356,49.38],[7.292,49.389],[7.29,49.415],[7.257,49.426],[7.246,49.446],[7.301,49.467],[7.297,49.484],[7.278,49.484],[7.281,49.506],[7.31,49.523],[7.276,49.537],[7.262,49.574],[7.269,49.584],[7.213,49.566],[7.21,49.577],[7.173,49.585],[7.174,49.599],[7.088,49.6],[7.059,49.63]]]}},{"type":"Feature","id":"11","properties":{"level":"state","ags":"11","name":"Berlin","share":22.5,"pop":3685265,"foreign":829185,"german":2856080},"geometry":{"type":"Polygon","coordinates":[[[13.48,52.675],[13.451,52.663],[13.47,52.652],[13.424,52.636],[13.397,52.648],[13.357,52.623],[13.302,52.628],[13.309,52.643],[13.3,52.653],[13.31,52.657],[13.283,52.661],[13.282,52.641],[13.262,52.641],[13.264,52.627],[13.221,52.628],[13.202,52.606],[13.217,52.587],[13.164,52.599],[13.129,52.587],[13.153,52.573],[13.146,52.553],[13.131,52.556],[13.117,52.517],[13.166,52.51],[13.118,52.479],[13.109,52.451],[13.123,52.439],[13.09,52.412],[13.112,52.413],[13.136,52.398],[13.134,52.387],[13.222,52.42],[13.246,52.421],[13.25,52.405],[13.296,52.416],[13.312,52.399],[13.343,52.412],[13.389,52.378],[13.421,52.376],[13.419,52.41],[13.462,52.421],[13.48,52.396],[13.538,52.401],[13.536,52.389],[13.593,52.394],[13.604,52.374],[13.643,52.377],[13.636,52.347],[13.652,52.339],[13.671,52.366],[13.7,52.375],[13.687,52.386],[13.735,52.402],[13.738,52.434],[13.759,52.443],[13.648,52.479],[13.612,52.471],[13.657,52.53],[13.626,52.53],[13.635,52.542],[13.585,52.548],[13.582,52.571],[13.508,52.592],[13.497,52.605],[13.523,52.645],[13.491,52.655],[13.48,52.675]]]}},{"type":"Feature","id":"12","properties":{"level":"state","ags":"12","name":"Brandenburg","share":7.2,"pop":2556747,"foreign":184086,"german":2372661},"geometry":{"type":"MultiPolygon","coordinates":[[[[12.219,52.861],[12.221,52.864],[12.217,52.862],[12.219,52.861]]],[[[13.801,53.558],[13.784,53.552],[13.778,53.514],[13.801,53.498],[13.827,53.499],[13.812,53.484],[13.779,53.474],[13.715,53.482],[13.641,53.447],[13.625,53.409],[13.55,53.399],[13.556,53.376],[13.517,53.352],[13.525,53.351],[13.524,53.32],[13.503,53.327],[13.507,53.316],[13.483,53.291],[13.438,53.3],[13.442,53.286],[13.408,53.263],[13.405,53.246],[13.387,53.244],[13.36,53.278],[13.298,53.281],[13.253,53.262],[13.229,53.217],[13.203,53.222],[13.182,53.251],[13.152,53.251],[13.133,53.237],[13.11,53.24],[13.107,53.215],[13.087,53.215],[13.08,53.2],[13.042,53.196],[13.006,53.167],[12.98,53.163],[12.962,53.178],[12.942,53.174],[12.979,53.191],[12.976,53.198],[12.948,53.199],[12.941,53.186],[12.905,53.194],[12.88,53.18],[12.846,53.201],[12.764,53.189],[12.739,53.2],[12.757,53.224],[12.671,53.23],[12.664,53.235],[12.676,53.248],[12.666,53.253],[12.606,53.244],[12.53,53.265],[12.445,53.25],[12.428,53.275],[12.392,53.285],[12.394,53.302],[12.311,53.327],[12.26,53.324],[12.229,53.358],[12.169,53.339],[12.152,53.362],[12.092,53.345],[12.078,53.369],[12.045,53.371],[12.056,53.35],[12.015,53.334],[12.019,53.3],[11.974,53.299],[11.948,53.272],[11.893,53.279],[11.862,53.248],[11.796,53.253],[11.829,53.229],[11.729,53.217],[11.728,53.232],[11.7,53.244],[11.629,53.242],[11.589,53.216],[11.552,53.208],[11.569,53.166],[11.535,53.125],[11.396,53.14],[11.394,53.11],[11.266,53.122],[11.268,53.104],[11.34,53.055],[11.448,53.078],[11.511,53.048],[11.638,53.039],[11.625,53.019],[11.632,53.009],[11.677,53.008],[11.693,52.978],[11.742,52.989],[11.786,52.961],[11.842,52.954],[11.849,52.942],[11.825,52.926],[11.826,52.915],[11.897,52.893],[11.98,52.876],[12.023,52.89],[12.113,52.876],[12.125,52.894],[12.12,52.876],[12.133,52.866],[12.124,52.854],[12.197,52.878],[12.21,52.862],[12.234,52.859],[12.258,52.805],[12.244,52.787],[12.221,52.79],[12.224,52.776],[12.206,52.761],[12.223,52.74],[12.198,52.718],[12.233,52.689],[12.237,52.629],[12.204,52.619],[12.172,52.626],[12.181,52.575],[12.142,52.528],[12.189,52.532],[12.167,52.515],[12.185,52.496],[12.222,52.501],[12.236,52.524],[12.258,52.518],[12.271,52.487],[12.33,52.497],[12.308,52.48],[12.331,52.479],[12.289,52.431],[12.297,52.424],[12.274,52.416],[12.302,52.405],[12.292,52.386],[12.306,52.377],[12.284,52.364],[12.308,52.345],[12.263,52.295],[12.245,52.248],[12.297,52.228],[12.249,52.212],[12.248,52.184],[12.229,52.186],[12.217,52.17],[12.265,52.131],[12.277,52.104],[12.316,52.092],[12.36,52.047],[12.39,52.044],[12.43,52.018],[12.481,52.033],[12.499,52.009],[12.536,52.003],[12.539,51.985],[12.603,51.981],[12.669,52.013],[12.774,51.978],[12.778,51.965],[12.844,51.968],[12.853,51.935],[12.961,51.935],[12.956,51.923],[12.977,51.92],[12.973,51.901],[13.045,51.901],[13.029,51.881],[13.039,51.871],[13.081,51.867],[13.124,51.883],[13.15,51.872],[13.151,51.86],[13.124,51.855],[13.163,51.802],[13.158,51.788],[13.17,51.787],[13.147,51.767],[13.163,51.755],[13.154,51.744],[13.187,51.716],[13.155,51.711],[13.155,51.687],[13.051,51.648],[13.086,51.608],[13.121,51.619],[13.155,51.6],[13.162,51.592],[13.143,51.567],[13.186,51.558],[13.208,51.524],[13.201,51.492],[13.182,51.492],[13.183,51.471],[13.203,51.451],[13.174,51.428],[13.2,51.433],[13.215,51.396],[13.269,51.385],[13.26,51.4],[13.286,51.399],[13.287,51.411],[13.328,51.427],[13.32,51.438],[13.377,51.425],[13.373,51.438],[13.401,51.454],[13.428,51.431],[13.421,51.422],[13.446,51.431],[13.474,51.418],[13.463,51.412],[13.521,51.402],[13.523,51.381],[13.543,51.369],[13.57,51.386],[13.59,51.384],[13.594,51.369],[13.668,51.376],[13.739,51.361],[13.767,51.371],[13.763,51.359],[13.819,51.369],[13.833,51.384],[13.883,51.375],[13.961,51.397],[13.972,51.394],[13.97,51.376],[14.001,51.373],[14.004,51.396],[14.028,51.396],[14.016,51.405],[14.045,51.419],[14.038,51.436],[14.063,51.446],[14.033,51.475],[14.087,51.477],[14.074,51.493],[14.096,51.499],[14.108,51.522],[14.142,51.523],[14.13,51.534],[14.137,51.543],[14.274,51.532],[14.323,51.519],[14.332,51.505],[14.34,51.521],[14.387,51.542],[14.448,51.542],[14.454,51.556],[14.515,51.554],[14.57,51.581],[14.599,51.572],[14.61,51.55],[14.674,51.551],[14.693,51.576],[14.706,51.576],[14.697,51.597],[14.73,51.582],[14.765,51.607],[14.753,51.628],[14.758,51.661],[14.737,51.688],[14.668,51.726],[14.656,51.741],[14.664,51.757],[14.65,51.762],[14.654,51.784],[14.605,51.805],[14.59,51.838],[14.694,51.902],[14.721,51.951],[14.705,51.977],[14.721,51.994],[14.714,52.004],[14.748,52.032],[14.745,52.054],[14.759,52.066],[14.682,52.117],[14.68,52.145],[14.705,52.17],[14.685,52.194],[14.708,52.212],[14.716,52.236],[14.692,52.256],[14.596,52.273],[14.576,52.288],[14.585,52.306],[14.561,52.329],[14.552,52.374],[14.534,52.397],[14.55,52.434],[14.579,52.442],[14.635,52.492],[14.604,52.531],[14.639,52.573],[14.596,52.611],[14.465,52.661],[14.351,52.752],[14.279,52.774],[14.217,52.817],[14.143,52.824],[14.123,52.838],[14.162,52.888],[14.144,52.961],[14.259,53.003],[14.349,53.055],[14.388,53.143],[14.366,53.172],[14.377,53.202],[14.406,53.211],[14.45,53.264],[14.421,53.276],[14.408,53.33],[14.349,53.31],[14.317,53.312],[14.302,53.286],[14.262,53.277],[14.266,53.26],[14.099,53.262],[14.11,53.283],[14.223,53.359],[14.243,53.392],[14.238,53.427],[14.177,53.423],[14.122,53.442],[14.082,53.411],[14.001,53.435],[13.916,53.422],[13.903,53.432],[13.918,53.456],[13.876,53.473],[13.879,53.504],[13.822,53.518],[13.801,53.558]],[[13.479,52.675],[13.491,52.655],[13.523,52.645],[13.497,52.605],[13.508,52.592],[13.582,52.571],[13.585,52.548],[13.635,52.542],[13.626,52.53],[13.657,52.53],[13.612,52.471],[13.648,52.479],[13.759,52.443],[13.738,52.434],[13.735,52.402],[13.687,52.386],[13.7,52.375],[13.671,52.366],[13.652,52.339],[13.636,52.347],[13.643,52.377],[13.604,52.374],[13.593,52.394],[13.536,52.389],[13.538,52.401],[13.48,52.396],[13.462,52.421],[13.419,52.41],[13.421,52.376],[13.389,52.378],[13.343,52.412],[13.312,52.399],[13.296,52.416],[13.25,52.405],[13.246,52.421],[13.222,52.42],[13.134,52.387],[13.136,52.398],[13.112,52.413],[13.09,52.412],[13.123,52.439],[13.109,52.451],[13.118,52.479],[13.166,52.51],[13.117,52.517],[13.131,52.556],[13.146,52.553],[13.153,52.573],[13.129,52.587],[13.164,52.599],[13.217,52.587],[13.202,52.606],[13.221,52.628],[13.264,52.627],[13.262,52.641],[13.282,52.641],[13.283,52.661],[13.31,52.657],[13.3,52.653],[13.309,52.643],[13.302,52.628],[13.357,52.623],[13.397,52.648],[13.424,52.636],[13.47,52.652],[13.451,52.663],[13.479,52.675]]]]}},{"type":"Feature","id":"13","properties":{"level":"state","ags":"13","name":"Mecklenburg-Vorpommern","share":6.3,"pop":1573597,"foreign":99137,"german":1474460},"geometry":{"type":"MultiPolygon","coordinates":[[[[12.104,54.168],[12.105,54.168],[12.102,54.168],[12.104,54.168]]],[[[13.355,54.179],[13.355,54.181],[13.354,54.18],[13.355,54.179]]],[[[13.39,54.264],[13.391,54.265],[13.389,54.265],[13.39,54.264]]],[[[13.812,54.174],[13.812,54.175],[13.81,54.175],[13.812,54.174]]],[[[13.334,54.17],[13.332,54.17],[13.334,54.169],[13.334,54.17]]],[[[12.988,54.444],[12.99,54.445],[12.987,54.444],[12.988,54.444]]],[[[13.211,54.465],[13.209,54.464],[13.212,54.464],[13.211,54.465]]],[[[13.352,54.176],[13.35,54.177],[13.349,54.177],[13.352,54.176]]],[[[11.477,53.964],[11.475,53.964],[11.478,53.962],[11.477,53.964]]],[[[13.364,54.251],[13.361,54.253],[13.359,54.253],[13.364,54.251]]],[[[13.207,54.465],[13.206,54.467],[13.204,54.466],[13.207,54.465]]],[[[14.033,53.944],[14.034,53.946],[14.031,53.945],[14.033,53.944]]],[[[13.081,54.475],[13.083,54.477],[13.08,54.475],[13.081,54.475]]],[[[13.959,53.941],[13.961,53.942],[13.959,53.944],[13.959,53.941]]],[[[13.301,54.541],[13.299,54.539],[13.303,54.538],[13.301,54.541]]],[[[12.726,54.427],[12.725,54.429],[12.723,54.429],[12.726,54.427]]],[[[12.528,54.358],[12.528,54.362],[12.525,54.359],[12.528,54.358]]],[[[12.671,54.416],[12.67,54.421],[12.669,54.418],[12.671,54.416]]],[[[12.529,54.369],[12.523,54.368],[12.527,54.367],[12.529,54.369]]],[[[12.522,54.372],[12.519,54.372],[12.524,54.371],[12.522,54.372]]],[[[12.526,54.363],[12.529,54.367],[12.525,54.365],[12.526,54.363]]],[[[12.97,54.436],[12.972,54.44],[12.968,54.438],[12.97,54.436]]],[[[12.53,54.346],[12.53,54.35],[12.527,54.352],[12.53,54.346]]],[[[13.804,54.084],[13.802,54.082],[13.804,54.079],[13.804,54.084]]],[[[14.029,53.947],[14.027,53.951],[14.024,53.952],[14.029,53.947]]],[[[12.107,54.163],[12.108,54.167],[12.105,54.167],[12.107,54.163]]],[[[11.467,53.964],[11.471,53.968],[11.467,53.968],[11.467,53.964]]],[[[12.93,54.428],[12.929,54.431],[12.923,54.433],[12.93,54.428]]],[[[11.429,53.942],[11.423,53.942],[11.427,53.938],[11.429,53.942]]],[[[12.585,54.375],[12.585,54.381],[12.58,54.377],[12.585,54.375]]],[[[13.785,54.053],[13.782,54.059],[13.78,54.056],[13.785,54.053]]],[[[13.809,54.178],[13.803,54.177],[13.812,54.176],[13.809,54.178]]],[[[12.666,54.407],[12.656,54.407],[12.662,54.405],[12.666,54.407]]],[[[13.123,54.428],[13.116,54.431],[13.118,54.427],[13.123,54.428]]],[[[13.813,54.17],[13.812,54.174],[13.806,54.174],[13.813,54.17]]],[[[13.21,54.464],[13.199,54.462],[13.199,54.457],[13.21,54.464]]],[[[12.531,54.358],[12.531,54.35],[12.536,54.356],[12.531,54.358]]],[[[12.981,54.442],[12.974,54.441],[12.983,54.438],[12.981,54.442]]],[[[13.774,54.206],[13.769,54.209],[13.769,54.201],[13.774,54.206]]],[[[13.225,54.47],[13.213,54.465],[13.223,54.465],[13.225,54.47]]],[[[11.496,54.031],[11.486,54.025],[11.495,54.024],[11.496,54.031]]],[[[12.644,54.42],[12.635,54.421],[12.637,54.416],[12.644,54.42]]],[[[13.797,54.107],[13.805,54.095],[13.808,54.101],[13.797,54.107]]],[[[13.369,54.183],[13.347,54.182],[13.371,54.181],[13.369,54.183]]],[[[13.211,54.397],[13.22,54.401],[13.21,54.402],[13.211,54.397]]],[[[13.125,54.544],[13.117,54.547],[13.119,54.539],[13.125,54.544]]],[[[13.92,54.251],[13.907,54.24],[13.927,54.249],[13.92,54.251]]],[[[11.515,54.038],[11.523,54.068],[11.512,54.054],[11.515,54.038]]],[[[13.16,54.513],[13.155,54.507],[13.165,54.502],[13.16,54.513]]],[[[14.267,53.708],[14.249,53.704],[14.256,53.702],[14.267,53.708]]],[[[12.737,54.412],[12.718,54.406],[12.73,54.405],[12.737,54.412]]],[[[13.764,54.127],[13.775,54.111],[13.79,54.109],[13.764,54.127]]],[[[13.932,54.025],[13.916,54.022],[13.926,54.016],[13.932,54.025]]],[[[13.129,54.314],[13.112,54.309],[13.125,54.304],[13.129,54.314]]],[[[13.544,54.323],[13.542,54.332],[13.519,54.312],[13.544,54.323]]],[[[12.932,54.443],[12.924,54.435],[12.962,54.439],[12.932,54.443]]],[[[13.402,54.18],[13.394,54.181],[13.41,54.16],[13.422,54.167],[13.402,54.18]]],[[[12.696,54.431],[12.675,54.418],[12.731,54.417],[12.696,54.431]]],[[[13.051,54.46],[12.973,54.436],[13.042,54.442],[13.059,54.451],[13.051,54.46]]],[[[13.137,54.605],[13.098,54.591],[13.1,54.565],[13.066,54.492],[13.064,54.458],[13.085,54.519],[13.117,54.538],[13.111,54.585],[13.141,54.599],[13.134,54.588],[13.145,54.574],[13.147,54.596],[13.158,54.574],[13.137,54.605]]],[[[13.184,54.494],[13.143,54.478],[13.121,54.444],[13.227,54.473],[13.225,54.487],[13.184,54.494]]],[[[11.473,54.024],[11.382,53.999],[11.378,53.975],[11.432,53.962],[11.428,53.986],[11.446,53.997],[11.441,53.965],[11.456,53.958],[11.48,53.982],[11.484,54.009],[11.489,53.999],[11.495,54.011],[11.494,54.022],[11.473,54.024]]],[[[13.798,54.174],[13.749,54.158],[13.775,54.12],[13.814,54.108],[13.791,54.049],[13.764,54.03],[13.77,54.019],[13.801,54.019],[13.859,54.048],[13.88,54.04],[13.853,54.014],[13.862,54],[13.924,54.036],[13.907,54.043],[13.911,54.064],[13.973,54.064],[13.998,54.042],[14.004,54.011],[14.016,54.021],[14.047,54.001],[14.039,53.941],[14.012,53.949],[14.023,53.962],[13.984,53.962],[13.964,53.957],[13.971,53.95],[13.953,53.935],[13.95,53.959],[13.972,53.97],[13.965,53.99],[13.906,53.99],[13.895,53.966],[13.923,53.951],[13.938,53.909],[13.893,53.877],[13.834,53.871],[13.826,53.85],[13.913,53.843],[13.93,53.875],[13.955,53.86],[13.922,53.848],[13.939,53.843],[13.991,53.848],[14.041,53.875],[14.213,53.866],[14.212,53.9],[14.185,53.914],[14.226,53.929],[14.016,54.054],[13.875,54.1],[13.798,54.174]]],[[[13.43,54.684],[13.288,54.674],[13.251,54.66],[13.22,54.641],[13.226,54.612],[13.215,54.596],[13.167,54.574],[13.161,54.559],[13.238,54.594],[13.227,54.625],[13.283,54.646],[13.288,54.625],[13.245,54.558],[13.332,54.582],[13.328,54.593],[13.368,54.615],[13.385,54.581],[13.446,54.552],[13.49,54.551],[13.485,54.559],[13.511,54.566],[13.491,54.559],[13.514,54.527],[13.503,54.479],[13.548,54.475],[13.547,54.457],[13.524,54.448],[13.557,54.439],[13.52,54.434],[13.542,54.428],[13.534,54.416],[13.476,54.425],[13.483,54.443],[13.499,54.446],[13.483,54.436],[13.504,54.434],[13.514,54.443],[13.471,54.454],[13.501,54.482],[13.45,54.472],[13.442,54.487],[13.413,54.494],[13.415,54.52],[13.376,54.56],[13.354,54.547],[13.388,54.531],[13.346,54.52],[13.361,54.543],[13.336,54.549],[13.354,54.551],[13.369,54.579],[13.297,54.552],[13.312,54.524],[13.305,54.514],[13.288,54.522],[13.289,54.542],[13.244,54.556],[13.144,54.547],[13.171,54.508],[13.231,54.511],[13.229,54.485],[13.27,54.48],[13.231,54.468],[13.253,54.464],[13.206,54.46],[13.2,54.448],[13.171,54.454],[13.15,54.429],[13.158,54.421],[13.212,54.43],[13.232,54.404],[13.255,54.406],[13.23,54.402],[13.238,54.387],[13.262,54.384],[13.22,54.368],[13.127,54.371],[13.114,54.332],[13.186,54.3],[13.154,54.305],[13.139,54.283],[13.193,54.297],[13.203,54.29],[13.2,54.27],[13.218,54.279],[13.268,54.254],[13.322,54.258],[13.31,54.266],[13.337,54.279],[13.322,54.246],[13.291,54.251],[13.393,54.221],[13.425,54.239],[13.417,54.256],[13.402,54.266],[13.379,54.253],[13.364,54.264],[13.369,54.254],[13.358,54.247],[13.351,54.27],[13.391,54.279],[13.387,54.267],[13.42,54.303],[13.462,54.316],[13.467,54.326],[13.453,54.326],[13.455,54.336],[13.551,54.34],[13.578,54.353],[13.614,54.33],[13.652,54.352],[13.682,54.35],[13.674,54.337],[13.61,54.317],[13.704,54.326],[13.645,54.298],[13.662,54.288],[13.702,54.296],[13.709,54.28],[13.684,54.283],[13.708,54.269],[13.724,54.273],[13.719,54.312],[13.74,54.335],[13.767,54.342],[13.721,54.359],[13.673,54.401],[13.613,54.403],[13.57,54.46],[13.578,54.48],[13.669,54.521],[13.68,54.562],[13.635,54.585],[13.46,54.571],[13.419,54.581],[13.393,54.599],[13.377,54.636],[13.391,54.651],[13.429,54.66],[13.439,54.677],[13.43,54.684]]],[[[12.53,54.487],[12.502,54.476],[12.466,54.42],[12.406,54.377],[12.335,54.296],[12.195,54.242],[12.129,54.187],[12.095,54.181],[12.101,54.169],[12.143,54.174],[12.143,54.16],[12.097,54.152],[12.098,54.121],[12.117,54.098],[12.154,54.097],[12.151,54.085],[12.151,54.094],[12.112,54.094],[12.091,54.111],[12.08,54.143],[12.096,54.17],[12.087,54.185],[11.85,54.145],[11.683,54.153],[11.525,54.072],[11.535,54.073],[11.532,54.049],[11.604,54.102],[11.626,54.09],[11.611,54.068],[11.583,54.064],[11.587,54.047],[11.573,54.033],[11.519,54.03],[11.534,54.02],[11.491,53.994],[11.5,53.986],[11.494,53.971],[11.473,53.971],[11.483,53.967],[11.482,53.928],[11.445,53.912],[11.453,53.899],[11.404,53.921],[11.407,53.935],[11.365,53.935],[11.334,53.959],[11.289,53.932],[11.254,53.937],[11.241,53.954],[11.26,53.984],[11.207,53.988],[11.18,54.015],[11.042,54.007],[10.904,53.957],[10.909,53.946],[10.895,53.925],[10.968,53.908],[10.911,53.898],[10.902,53.906],[10.911,53.915],[10.883,53.924],[10.847,53.897],[10.771,53.873],[10.748,53.852],[10.748,53.834],[10.773,53.792],[10.758,53.748],[10.806,53.739],[10.811,53.72],[10.851,53.7],[10.905,53.703],[10.942,53.685],[10.939,53.666],[10.955,53.657],[10.93,53.629],[10.917,53.599],[10.924,53.584],[10.864,53.565],[10.823,53.575],[10.832,53.543],[10.815,53.522],[10.824,53.514],[10.786,53.51],[10.756,53.483],[10.702,53.478],[10.693,53.455],[10.632,53.455],[10.617,53.385],[10.594,53.365],[10.703,53.369],[10.738,53.342],[10.763,53.339],[10.76,53.33],[10.836,53.305],[10.919,53.348],[10.988,53.333],[11.009,53.281],[11.028,53.278],[11.08,53.221],[11.138,53.203],[11.137,53.192],[11.194,53.181],[11.172,53.157],[11.185,53.136],[11.223,53.144],[11.29,53.117],[11.394,53.11],[11.396,53.14],[11.461,53.14],[11.502,53.121],[11.549,53.131],[11.55,53.151],[11.569,53.167],[11.552,53.208],[11.589,53.216],[11.626,53.241],[11.7,53.244],[11.74,53.218],[11.829,53.229],[11.796,53.253],[11.862,53.248],[11.893,53.279],[11.954,53.274],[11.974,53.299],[12.024,53.304],[12.015,53.334],[12.056,53.35],[12.045,53.371],[12.078,53.369],[12.092,53.345],[12.152,53.362],[12.169,53.339],[12.229,53.358],[12.26,53.324],[12.311,53.327],[12.394,53.302],[12.392,53.285],[12.428,53.275],[12.445,53.25],[12.53,53.265],[12.606,53.244],[12.655,53.255],[12.676,53.248],[12.664,53.235],[12.671,53.23],[12.757,53.224],[12.739,53.2],[12.764,53.189],[12.846,53.201],[12.88,53.18],[12.913,53.195],[12.942,53.186],[12.937,53.194],[12.964,53.2],[12.979,53.191],[12.942,53.174],[13.005,53.167],[13.042,53.196],[13.107,53.215],[13.11,53.24],[13.133,53.237],[13.152,53.251],[13.182,53.251],[13.203,53.222],[13.229,53.217],[13.253,53.262],[13.298,53.281],[13.36,53.278],[13.387,53.244],[13.405,53.246],[13.408,53.263],[13.442,53.286],[13.438,53.3],[13.483,53.291],[13.507,53.316],[13.503,53.327],[13.524,53.32],[13.525,53.351],[13.517,53.352],[13.556,53.376],[13.55,53.399],[13.625,53.409],[13.641,53.447],[13.715,53.482],[13.779,53.474],[13.812,53.484],[13.827,53.499],[13.801,53.498],[13.778,53.514],[13.791,53.559],[13.822,53.518],[13.879,53.504],[13.876,53.473],[13.918,53.456],[13.903,53.432],[13.916,53.422],[14.001,53.435],[14.082,53.411],[14.122,53.442],[14.177,53.423],[14.238,53.427],[14.243,53.392],[14.223,53.359],[14.11,53.283],[14.099,53.262],[14.266,53.26],[14.262,53.277],[14.302,53.286],[14.317,53.312],[14.349,53.31],[14.412,53.33],[14.39,53.354],[14.395,53.376],[14.373,53.409],[14.371,53.456],[14.358,53.457],[14.351,53.496],[14.327,53.504],[14.306,53.544],[14.317,53.618],[14.284,53.634],[14.285,53.659],[14.271,53.667],[14.284,53.683],[14.267,53.699],[14.215,53.703],[14.266,53.73],[14.266,53.749],[14.233,53.762],[14.181,53.735],[14.103,53.74],[13.969,53.773],[13.916,53.806],[13.899,53.804],[13.868,53.835],[13.816,53.844],[13.806,53.859],[13.825,53.865],[13.825,53.877],[13.847,53.878],[13.865,53.9],[13.914,53.922],[13.881,53.95],[13.853,53.953],[13.834,53.984],[13.744,54.029],[13.783,54.048],[13.774,54.06],[13.79,54.064],[13.804,54.097],[13.755,54.12],[13.762,54.128],[13.749,54.14],[13.697,54.149],[13.696,54.158],[13.718,54.163],[13.712,54.169],[13.649,54.153],[13.659,54.145],[13.493,54.125],[13.476,54.118],[13.501,54.086],[13.462,54.089],[13.43,54.136],[13.407,54.147],[13.411,54.156],[13.383,54.143],[13.38,54.152],[13.406,54.169],[13.379,54.177],[13.316,54.16],[13.347,54.18],[13.327,54.184],[13.291,54.234],[13.216,54.241],[13.185,54.266],[13.143,54.253],[13.178,54.271],[13.167,54.279],[13.133,54.269],[13.104,54.283],[13.112,54.306],[13.088,54.32],[13.076,54.346],[13.092,54.369],[13.026,54.397],[13.02,54.412],[13.034,54.432],[13.016,54.439],[12.898,54.402],[12.878,54.365],[12.81,54.344],[12.804,54.37],[12.785,54.379],[12.786,54.396],[12.769,54.372],[12.744,54.384],[12.737,54.37],[12.72,54.372],[12.715,54.399],[12.7,54.398],[12.688,54.368],[12.676,54.371],[12.693,54.386],[12.689,54.4],[12.715,54.404],[12.707,54.412],[12.659,54.405],[12.671,54.391],[12.597,54.372],[12.586,54.356],[12.575,54.359],[12.582,54.373],[12.554,54.38],[12.534,54.365],[12.553,54.356],[12.536,54.338],[12.473,54.33],[12.479,54.304],[12.409,54.28],[12.418,54.259],[12.46,54.248],[12.418,54.246],[12.364,54.266],[12.382,54.278],[12.358,54.303],[12.396,54.323],[12.385,54.341],[12.416,54.336],[12.415,54.365],[12.436,54.379],[12.518,54.373],[12.553,54.39],[12.592,54.384],[12.598,54.392],[12.577,54.404],[12.618,54.407],[12.617,54.418],[12.638,54.426],[12.666,54.409],[12.693,54.432],[12.802,54.409],[12.832,54.423],[12.875,54.414],[12.927,54.428],[12.921,54.445],[12.677,54.442],[12.561,54.455],[12.523,54.472],[12.53,54.482],[12.518,54.485],[12.53,54.487]]]]}},{"type":"Feature","id":"14","properties":{"level":"state","ags":"14","name":"Sachsen","share":8.1,"pop":4042422,"foreign":327436,"german":3714986},"geometry":{"type":"Polygon","coordinates":[[[12.846,51.684],[12.773,51.648],[12.687,51.662],[12.649,51.62],[12.608,51.611],[12.629,51.625],[12.58,51.626],[12.56,51.609],[12.507,51.608],[12.483,51.593],[12.486,51.604],[12.444,51.61],[12.425,51.582],[12.337,51.586],[12.293,51.561],[12.243,51.567],[12.231,51.547],[12.193,51.531],[12.19,51.508],[12.208,51.503],[12.203,51.485],[12.149,51.463],[12.157,51.433],[12.182,51.432],[12.19,51.421],[12.174,51.41],[12.185,51.388],[12.172,51.384],[12.19,51.379],[12.182,51.369],[12.194,51.369],[12.186,51.366],[12.196,51.36],[12.194,51.331],[12.148,51.32],[12.157,51.292],[12.172,51.286],[12.166,51.266],[12.189,51.258],[12.205,51.214],[12.175,51.181],[12.213,51.184],[12.196,51.142],[12.242,51.131],[12.221,51.123],[12.221,51.11],[12.288,51.091],[12.334,51.103],[12.357,51.094],[12.361,51.08],[12.393,51.084],[12.41,51.073],[12.458,51.085],[12.463,51.067],[12.504,51.061],[12.507,51.017],[12.539,51.024],[12.54,51.006],[12.528,50.998],[12.584,50.982],[12.608,50.997],[12.624,50.94],[12.654,50.919],[12.64,50.903],[12.508,50.904],[12.511,50.894],[12.459,50.88],[12.464,50.87],[12.448,50.867],[12.437,50.842],[12.42,50.84],[12.413,50.857],[12.374,50.853],[12.348,50.838],[12.348,50.824],[12.307,50.819],[12.299,50.83],[12.302,50.817],[12.29,50.824],[12.28,50.81],[12.25,50.819],[12.243,50.809],[12.253,50.789],[12.29,50.783],[12.264,50.76],[12.241,50.767],[12.227,50.738],[12.265,50.738],[12.273,50.728],[12.253,50.716],[12.263,50.695],[12.319,50.684],[12.318,50.663],[12.264,50.643],[12.266,50.631],[12.233,50.627],[12.198,50.641],[12.183,50.612],[12.17,50.629],[12.15,50.629],[12.147,50.606],[12.11,50.589],[12.156,50.586],[12.156,50.573],[12.116,50.567],[12.084,50.579],[12.073,50.555],[12.03,50.549],[12.018,50.568],[12.036,50.594],[12.005,50.612],[12.022,50.626],[12.004,50.635],[11.979,50.621],[11.987,50.609],[11.924,50.586],[11.934,50.569],[11.926,50.557],[11.871,50.54],[11.888,50.517],[11.925,50.526],[11.934,50.506],[11.964,50.487],[11.938,50.472],[11.951,50.454],[11.932,50.464],[11.889,50.444],[11.928,50.433],[11.92,50.424],[11.946,50.416],[11.949,50.395],[11.984,50.389],[11.976,50.352],[12.015,50.348],[12.047,50.325],[12.091,50.333],[12.116,50.316],[12.184,50.322],[12.201,50.309],[12.201,50.273],[12.254,50.271],[12.266,50.25],[12.248,50.258],[12.24,50.246],[12.294,50.221],[12.275,50.197],[12.294,50.175],[12.338,50.173],[12.324,50.181],[12.338,50.192],[12.323,50.207],[12.335,50.217],[12.331,50.243],[12.359,50.242],[12.352,50.262],[12.371,50.285],[12.401,50.295],[12.398,50.321],[12.431,50.323],[12.469,50.355],[12.489,50.35],[12.487,50.371],[12.512,50.397],[12.673,50.417],[12.707,50.397],[12.735,50.432],[12.795,50.449],[12.811,50.431],[12.819,50.46],[12.948,50.404],[12.942,50.411],[12.983,50.42],[13.02,50.447],[13.032,50.51],[13.085,50.5],[13.133,50.518],[13.137,50.506],[13.195,50.503],[13.248,50.592],[13.279,50.593],[13.291,50.575],[13.324,50.582],[13.325,50.608],[13.378,50.628],[13.371,50.651],[13.392,50.646],[13.415,50.616],[13.465,50.602],[13.524,50.639],[13.513,50.654],[13.544,50.677],[13.527,50.705],[13.602,50.71],[13.664,50.732],[13.706,50.717],[13.728,50.734],[13.758,50.736],[13.855,50.727],[13.862,50.743],[13.898,50.744],[13.888,50.77],[13.901,50.793],[13.939,50.79],[13.99,50.82],[14.031,50.804],[14.078,50.812],[14.09,50.826],[14.223,50.859],[14.233,50.888],[14.268,50.895],[14.305,50.884],[14.349,50.901],[14.388,50.899],[14.386,50.916],[14.402,50.924],[14.397,50.936],[14.312,50.954],[14.317,50.961],[14.303,50.965],[14.328,50.974],[14.324,50.985],[14.286,50.977],[14.259,50.988],[14.269,51],[14.261,51.009],[14.286,51.027],[14.274,51.04],[14.302,51.055],[14.337,51.039],[14.383,51.039],[14.408,51.019],[14.454,51.036],[14.493,51.023],[14.491,51.044],[14.508,51.043],[14.499,51.022],[14.532,51.017],[14.535,51.004],[14.565,51.01],[14.599,50.987],[14.596,50.963],[14.565,50.918],[14.65,50.932],[14.653,50.905],[14.636,50.897],[14.619,50.858],[14.709,50.841],[14.722,50.822],[14.797,50.821],[14.825,50.867],[14.82,50.885],[14.897,50.941],[14.903,50.972],[14.919,50.975],[14.917,50.995],[14.965,51.05],[14.984,51.091],[14.981,51.116],[14.998,51.122],[14.99,51.142],[15.014,51.196],[15.01,51.213],[15.038,51.245],[15.023,51.25],[15.042,51.273],[15.033,51.294],[15.012,51.301],[14.965,51.361],[14.984,51.374],[14.958,51.395],[14.969,51.398],[14.959,51.431],[14.974,51.442],[14.952,51.468],[14.736,51.526],[14.711,51.563],[14.73,51.582],[14.708,51.597],[14.697,51.597],[14.706,51.576],[14.693,51.576],[14.674,51.551],[14.61,51.55],[14.599,51.572],[14.57,51.581],[14.515,51.554],[14.454,51.556],[14.448,51.542],[14.387,51.542],[14.34,51.521],[14.332,51.505],[14.323,51.519],[14.274,51.532],[14.137,51.543],[14.13,51.534],[14.142,51.523],[14.108,51.522],[14.096,51.499],[14.074,51.493],[14.087,51.477],[14.033,51.475],[14.063,51.446],[14.038,51.436],[14.045,51.419],[14.016,51.405],[14.028,51.396],[14.004,51.396],[14.001,51.373],[13.97,51.376],[13.972,51.394],[13.956,51.397],[13.883,51.375],[13.833,51.384],[13.819,51.369],[13.763,51.359],[13.767,51.371],[13.739,51.361],[13.668,51.376],[13.594,51.369],[13.59,51.384],[13.57,51.386],[13.543,51.369],[13.523,51.381],[13.521,51.402],[13.463,51.412],[13.474,51.418],[13.446,51.431],[13.421,51.422],[13.428,51.431],[13.401,51.454],[13.373,51.438],[13.377,51.425],[13.32,51.438],[13.328,51.427],[13.287,51.411],[13.286,51.399],[13.26,51.4],[13.269,51.385],[13.217,51.395],[13.2,51.433],[13.174,51.428],[13.203,51.451],[13.183,51.471],[13.182,51.492],[13.201,51.492],[13.208,51.524],[13.186,51.558],[13.143,51.567],[13.162,51.592],[13.155,51.6],[13.121,51.619],[13.086,51.608],[13.051,51.648],[13.023,51.637],[13.017,51.66],[12.996,51.669],[12.967,51.666],[12.972,51.65],[12.942,51.638],[12.928,51.65],[12.898,51.647],[12.889,51.667],[12.866,51.655],[12.846,51.684]]]}},{"type":"Feature","id":"15","properties":{"level":"state","ags":"15","name":"Sachsen-Anhalt","share":7.6,"pop":2135597,"foreign":162305,"german":1973292},"geometry":{"type":"MultiPolygon","coordinates":[[[[11.447,51.194],[11.447,51.199],[11.439,51.2],[11.447,51.194]]],[[[11.626,53.013],[11.642,53.034],[11.63,53.042],[11.598,53.036],[11.559,53.013],[11.556,52.999],[11.512,53.007],[11.492,52.96],[11.505,52.941],[11.47,52.939],[11.407,52.904],[11.314,52.878],[11.295,52.875],[11.291,52.889],[11.241,52.879],[11.221,52.898],[11.155,52.906],[11.106,52.896],[11.093,52.899],[11.099,52.913],[11.002,52.911],[10.986,52.882],[10.94,52.853],[10.765,52.84],[10.772,52.834],[10.757,52.82],[10.755,52.785],[10.792,52.748],[10.797,52.714],[10.83,52.716],[10.921,52.61],[10.977,52.624],[10.976,52.607],[10.94,52.59],[10.947,52.583],[10.938,52.567],[11.009,52.497],[10.95,52.496],[10.934,52.461],[11.006,52.409],[11.015,52.388],[11.074,52.374],[11.057,52.35],[10.984,52.342],[11.036,52.31],[11.039,52.302],[11.014,52.287],[11.052,52.267],[11.059,52.241],[11.073,52.243],[11.086,52.229],[11.014,52.2],[11.019,52.178],[11.06,52.172],[11.044,52.134],[10.942,52.103],[10.971,52.086],[10.964,52.057],[10.687,52.048],[10.648,52.042],[10.655,52.025],[10.626,52.008],[10.592,52.014],[10.561,52.004],[10.62,51.958],[10.651,51.958],[10.613,51.939],[10.613,51.922],[10.64,51.915],[10.65,51.891],[10.579,51.848],[10.588,51.836],[10.574,51.811],[10.58,51.783],[10.626,51.759],[10.642,51.725],[10.668,51.71],[10.671,51.667],[10.696,51.643],[10.765,51.649],[10.818,51.639],[10.823,51.624],[10.859,51.633],[10.887,51.612],[10.922,51.618],[10.914,51.61],[10.937,51.603],[10.931,51.592],[10.894,51.602],[10.882,51.581],[10.9,51.551],[10.948,51.538],[10.927,51.521],[10.973,51.482],[10.961,51.471],[10.973,51.454],[10.967,51.432],[11.011,51.425],[10.992,51.418],[11.061,51.43],[11.142,51.403],[11.224,51.413],[11.249,51.395],[11.321,51.41],[11.331,51.39],[11.397,51.381],[11.399,51.345],[11.429,51.343],[11.414,51.333],[11.475,51.298],[11.413,51.241],[11.385,51.246],[11.365,51.221],[11.39,51.218],[11.391,51.204],[11.431,51.212],[11.469,51.193],[11.471,51.17],[11.486,51.168],[11.472,51.148],[11.451,51.147],[11.463,51.113],[11.546,51.102],[11.572,51.119],[11.62,51.097],[11.638,51.111],[11.667,51.111],[11.692,51.1],[11.701,51.069],[11.732,51.068],[11.76,51.043],[11.775,51.053],[11.889,51.056],[11.911,51.045],[11.912,51.028],[11.943,51.032],[11.977,51.016],[11.97,50.994],[12.007,50.991],[12.014,50.969],[12.092,50.977],[12.164,50.959],[12.183,50.976],[12.198,50.957],[12.214,50.958],[12.215,50.938],[12.239,50.952],[12.24,50.976],[12.284,51.006],[12.294,51.031],[12.25,51.038],[12.266,51.077],[12.288,51.088],[12.221,51.11],[12.221,51.123],[12.242,51.131],[12.196,51.142],[12.213,51.184],[12.175,51.181],[12.205,51.214],[12.189,51.258],[12.166,51.266],[12.172,51.286],[12.157,51.292],[12.148,51.32],[12.194,51.331],[12.196,51.36],[12.186,51.362],[12.193,51.371],[12.182,51.369],[12.19,51.379],[12.172,51.384],[12.185,51.388],[12.174,51.41],[12.19,51.421],[12.182,51.432],[12.157,51.433],[12.149,51.459],[12.176,51.47],[12.176,51.482],[12.203,51.485],[12.208,51.503],[12.19,51.508],[12.193,51.531],[12.231,51.547],[12.243,51.567],[12.293,51.561],[12.337,51.586],[12.425,51.582],[12.444,51.61],[12.486,51.604],[12.483,51.593],[12.507,51.608],[12.56,51.609],[12.58,51.626],[12.629,51.625],[12.608,51.611],[12.649,51.62],[12.687,51.662],[12.773,51.648],[12.844,51.685],[12.862,51.674],[12.866,51.655],[12.889,51.667],[12.898,51.647],[12.928,51.65],[12.942,51.638],[12.972,51.65],[12.967,51.666],[12.996,51.669],[13.017,51.66],[13.023,51.637],[13.155,51.687],[13.155,51.711],[13.187,51.716],[13.154,51.744],[13.163,51.755],[13.147,51.767],[13.17,51.787],[13.158,51.788],[13.163,51.802],[13.124,51.855],[13.151,51.86],[13.151,51.869],[13.124,51.883],[13.081,51.867],[13.039,51.871],[13.029,51.881],[13.045,51.901],[12.973,51.901],[12.977,51.92],[12.956,51.923],[12.961,51.935],[12.853,51.935],[12.844,51.968],[12.778,51.965],[12.774,51.978],[12.669,52.013],[12.649,52.008],[12.645,51.994],[12.614,51.992],[12.615,51.982],[12.539,51.985],[12.536,52.003],[12.499,52.009],[12.481,52.033],[12.43,52.018],[12.39,52.044],[12.36,52.047],[12.316,52.092],[12.277,52.104],[12.265,52.131],[12.217,52.17],[12.229,52.186],[12.248,52.184],[12.249,52.212],[12.297,52.228],[12.245,52.248],[12.263,52.295],[12.308,52.345],[12.284,52.364],[12.306,52.377],[12.292,52.386],[12.302,52.405],[12.274,52.416],[12.297,52.424],[12.289,52.431],[12.331,52.479],[12.316,52.475],[12.309,52.486],[12.33,52.496],[12.271,52.487],[12.258,52.518],[12.236,52.524],[12.222,52.501],[12.185,52.496],[12.167,52.515],[12.189,52.532],[12.142,52.528],[12.181,52.575],[12.172,52.626],[12.204,52.619],[12.237,52.629],[12.233,52.689],[12.198,52.718],[12.223,52.74],[12.206,52.761],[12.224,52.776],[12.221,52.79],[12.244,52.787],[12.258,52.805],[12.234,52.859],[12.21,52.862],[12.197,52.878],[12.124,52.854],[12.133,52.866],[12.12,52.876],[12.125,52.894],[12.113,52.876],[12.023,52.89],[11.98,52.876],[11.897,52.893],[11.826,52.915],[11.825,52.926],[11.849,52.942],[11.842,52.954],[11.786,52.961],[11.742,52.989],[11.693,52.978],[11.677,53.008],[11.626,53.013]],[[12.222,52.863],[12.217,52.861],[12.221,52.864],[12.222,52.863]]]]}},{"type":"Feature","id":"16","properties":{"level":"state","ags":"16","name":"Thüringen","share":8.3,"pop":2100277,"foreign":174323,"german":1925954},"geometry":{"type":"MultiPolygon","coordinates":[[[[10.789,51.642],[10.701,51.642],[10.64,51.622],[10.649,51.607],[10.633,51.608],[10.639,51.584],[10.666,51.578],[10.657,51.558],[10.604,51.58],[10.56,51.557],[10.519,51.554],[10.444,51.59],[10.37,51.588],[10.379,51.569],[10.368,51.543],[10.342,51.519],[10.309,51.515],[10.3,51.494],[10.245,51.484],[10.233,51.471],[10.202,51.487],[10.178,51.47],[10.186,51.462],[10.174,51.446],[10.14,51.443],[10.15,51.429],[10.08,51.435],[10.069,51.418],[10.047,51.437],[10.038,51.42],[10.009,51.421],[10,51.404],[9.923,51.368],[9.93,51.34],[9.948,51.326],[9.94,51.307],[9.97,51.3],[9.973,51.284],[10.06,51.276],[10.047,51.253],[10.079,51.243],[10.069,51.227],[10.138,51.22],[10.15,51.206],[10.168,51.212],[10.236,51.185],[10.207,51.165],[10.2,51.15],[10.211,51.123],[10.2,51.113],[10.168,51.153],[10.118,51.14],[10.175,51.117],[10.145,51.085],[10.155,51.07],[10.141,51.058],[10.199,51.04],[10.215,51.026],[10.193,51.019],[10.203,51.008],[10.147,50.994],[10.121,51.012],[10.103,51.003],[10.036,51.012],[10.019,50.981],[10.041,50.968],[10.032,50.96],[10.043,50.948],[10.062,50.944],[10.014,50.935],[9.95,50.942],[9.957,50.923],[9.992,50.935],[9.971,50.907],[10.016,50.921],[10.06,50.885],[10.022,50.864],[10.022,50.848],[10.039,50.853],[10.023,50.832],[10.007,50.838],[9.998,50.827],[9.977,50.833],[9.952,50.821],[9.957,50.81],[9.944,50.798],[9.952,50.773],[9.928,50.777],[9.92,50.76],[9.94,50.756],[9.942,50.739],[9.909,50.705],[9.923,50.694],[9.881,50.673],[9.879,50.635],[9.961,50.629],[9.969,50.641],[9.951,50.666],[10.051,50.673],[10.083,50.634],[10.081,50.62],[10.058,50.626],[10.037,50.613],[10.049,50.599],[10.046,50.571],[10.062,50.557],[10.04,50.533],[10.041,50.516],[10.119,50.564],[10.14,50.543],[10.204,50.555],[10.232,50.531],[10.231,50.512],[10.331,50.494],[10.341,50.483],[10.336,50.466],[10.381,50.439],[10.371,50.432],[10.404,50.425],[10.384,50.409],[10.394,50.394],[10.45,50.403],[10.464,50.376],[10.494,50.369],[10.492,50.355],[10.512,50.36],[10.515,50.35],[10.544,50.365],[10.562,50.337],[10.601,50.334],[10.592,50.308],[10.605,50.294],[10.591,50.272],[10.607,50.271],[10.598,50.263],[10.611,50.249],[10.597,50.246],[10.612,50.224],[10.687,50.226],[10.717,50.205],[10.731,50.213],[10.732,50.252],[10.77,50.241],[10.801,50.251],[10.824,50.238],[10.848,50.245],[10.846,50.275],[10.804,50.28],[10.803,50.292],[10.771,50.293],[10.715,50.321],[10.729,50.348],[10.712,50.355],[10.715,50.364],[10.755,50.358],[10.786,50.385],[10.804,50.379],[10.873,50.397],[10.893,50.38],[10.938,50.392],[10.986,50.347],[11,50.352],[10.993,50.365],[11.033,50.361],[11.043,50.345],[11.115,50.367],[11.117,50.349],[11.139,50.354],[11.159,50.33],[11.132,50.308],[11.146,50.285],[11.184,50.281],[11.174,50.271],[11.187,50.27],[11.198,50.292],[11.252,50.269],[11.26,50.287],[11.252,50.299],[11.27,50.307],[11.256,50.322],[11.261,50.338],[11.277,50.336],[11.262,50.352],[11.284,50.36],[11.258,50.4],[11.268,50.432],[11.247,50.449],[11.247,50.477],[11.289,50.486],[11.291,50.475],[11.323,50.491],[11.321,50.509],[11.347,50.512],[11.347,50.522],[11.429,50.512],[11.441,50.5],[11.419,50.493],[11.421,50.443],[11.451,50.431],[11.443,50.421],[11.482,50.432],[11.479,50.401],[11.519,50.396],[11.52,50.374],[11.56,50.384],[11.573,50.4],[11.625,50.387],[11.762,50.405],[11.751,50.414],[11.78,50.419],[11.825,50.404],[11.823,50.39],[11.866,50.401],[11.924,50.426],[11.889,50.444],[11.932,50.464],[11.951,50.454],[11.938,50.472],[11.965,50.485],[11.934,50.506],[11.931,50.523],[11.888,50.517],[11.871,50.54],[11.926,50.557],[11.934,50.569],[11.924,50.586],[11.989,50.611],[11.979,50.621],[12.004,50.635],[12.021,50.627],[12.005,50.614],[12.036,50.594],[12.036,50.581],[12.018,50.568],[12.03,50.549],[12.052,50.551],[12.077,50.558],[12.084,50.579],[12.116,50.567],[12.156,50.573],[12.156,50.586],[12.11,50.589],[12.147,50.606],[12.154,50.631],[12.183,50.612],[12.198,50.641],[12.233,50.627],[12.266,50.631],[12.264,50.643],[12.318,50.663],[12.319,50.684],[12.263,50.695],[12.253,50.716],[12.273,50.728],[12.265,50.738],[12.227,50.738],[12.241,50.767],[12.264,50.76],[12.29,50.783],[12.253,50.789],[12.243,50.809],[12.25,50.819],[12.28,50.81],[12.29,50.824],[12.302,50.817],[12.299,50.83],[12.307,50.819],[12.348,50.824],[12.348,50.838],[12.374,50.853],[12.413,50.857],[12.42,50.84],[12.437,50.842],[12.448,50.867],[12.464,50.87],[12.459,50.88],[12.511,50.894],[12.508,50.904],[12.64,50.903],[12.654,50.919],[12.624,50.94],[12.608,50.997],[12.584,50.982],[12.528,50.998],[12.54,51.006],[12.539,51.024],[12.507,51.017],[12.504,51.061],[12.463,51.067],[12.458,51.085],[12.372,51.077],[12.332,51.104],[12.284,51.092],[12.25,51.038],[12.287,51.038],[12.292,51.019],[12.24,50.976],[12.239,50.952],[12.215,50.938],[12.214,50.958],[12.198,50.957],[12.183,50.976],[12.164,50.959],[12.092,50.977],[12.014,50.969],[12.007,50.991],[11.97,50.994],[11.977,51.016],[11.943,51.032],[11.912,51.028],[11.911,51.045],[11.889,51.056],[11.775,51.053],[11.76,51.043],[11.732,51.068],[11.701,51.069],[11.692,51.1],[11.667,51.111],[11.638,51.111],[11.62,51.097],[11.572,51.119],[11.546,51.102],[11.485,51.103],[11.463,51.113],[11.451,51.147],[11.472,51.148],[11.475,51.166],[11.485,51.166],[11.471,51.17],[11.469,51.193],[11.431,51.212],[11.391,51.204],[11.39,51.218],[11.365,51.221],[11.385,51.246],[11.413,51.241],[11.475,51.298],[11.414,51.333],[11.429,51.343],[11.399,51.345],[11.397,51.381],[11.331,51.39],[11.321,51.41],[11.249,51.395],[11.224,51.413],[11.142,51.403],[11.061,51.43],[10.992,51.418],[11.011,51.425],[10.967,51.432],[10.973,51.454],[10.961,51.471],[10.973,51.482],[10.927,51.521],[10.948,51.538],[10.9,51.551],[10.882,51.581],[10.894,51.602],[10.929,51.591],[10.937,51.603],[10.914,51.61],[10.922,51.618],[10.894,51.611],[10.859,51.633],[10.823,51.623],[10.818,51.639],[10.789,51.642]]],[[[11.444,51.197],[11.439,51.2],[11.447,51.194],[11.444,51.197]]]]}}]}